id,org,street,city,state,zip,nation
1165,Universidad Metropolitana,Po Box 21150,San Juan,PR,00928,United States
2062,Newport News Public Schools,12465 Warwick Road,Newport News,VA,23606,United States
5289,American Association for Artificial Intelligence,2275 E Bayshore Rd Ste 160,Palo Alto,CA,94303,United States
7737,International BioComputing Corporation,7674 E Dayview Circle,Tucson,AZ,85750,United States
305,Polytechnic University of New York,15 Metrotech Center,Brooklyn,NY,11201,United States
1188,Surry County Public Schools,P.o. Box 317,Surry,VA,23883,United States
2446,Fayetteville State University,1200 Murchison Road,Fayetteville,NC,28301,United States
347,"TDA Research, Inc",12345 W 52nd Ave,Wheat Ridge,CO,80033,United States
2379,Winthrop University,701 Oakland Avenue,Rock Hill,SC,29730,United States
413,SUNY College at Geneseo,1 College Circle,Geneseo,NY,14454,United States
3711,Arkansas Tech University,"105 West ""o"" Street",Russellville,AR,72801,United States
3127,Cache Corporation,P.o.box 7939,Austin,TX,78713,United States
4476,Internet Policy Institute,601 Pennsylvania Avenue Nw,Washington,DC,20004,United States
783,Millersville University,Po Box 1002,Millersville,PA,17551,United States
3863,"Fleischer, Lisa K",,Pittsburgh,PA,15213,United States
235,Vassar College,124 Raymond Avenue,Poughkeepsie,NY,12604,United States
3065,CUNY Medgar Evers College,1150 Carroll Street,Brooklyn,NY,11225,United States
2870,Marion Technical College,1465 Mount Vernon Avenue,Marion,OH,43302,United States
9324,Children's Research Institute,"111 Michigan Avenue, Nw","Washington, D.c.",DC,20010,United States
9678,COUNSIL OF THE INSPECTORS GENERAL ON INTEGRITY & EFFICIENCY,1400 Independence Avenue,Washington,DC,20250,United States
509,Swarthmore College,500 College Ave,Swarthmore,PA,19081,United States
4206,Northeastern State University,600 N. Grand,Tahlequah,OK,74464,United States
239,"University of Massachusetts, Dartmouth",285 Old Westport Road,North Dartmouth,MA,02747,United States
3307,Council on Competitiveness,1500 K St. Nw Suite 850,Washington,DC,20005,United States
1948,Southern University,P O Box 9272,Baton Rouge,LA,70813,United States
67,New Jersey Institute of Technology,323 Doctor Martin Luther,Newark,NJ,07102,United States
63,Oregon Health and Science University,3181 S W Sam Jackson Park Rd,Portland,OR,97239,United States
23,University of California-Irvine,"5171 California Avenue, Ste 150",Irvine,CA,92697,United States
4482,Fort Peck Community College,P.o. Box 398,Poplar,MT,59255,United States
536,The Salk Institute for Biological Studies,10010 N Torrey Pines Rd,La Jolla,CA,92037,United States
298,University of Missouri-Saint Louis,One University Blvd,Saint Louis,MO,63121,United States
259,Nevada System of Higher Education,2601 Enterprise Road,Reno,NV,89512,United States
3091,Lake Superior State University,650 West Easterday Ave.,Sault Ste. Marie,MI,49783,United States
6115,Adventium Labs,100 Mill Place,Minneapolis,MN,55401,United States
932,California State University-Stanislaus,One University Circle,Turlock,CA,95382,United States
574,Texas A&M University Main Campus,400 Harvey Mitchell Pkwy South,College Station,TX,77843,United States
5248,Federation of American Scientists,1717 K Street Nw Suite 209,Washington,DC,20036,United States
584,CUNY Brooklyn College,Office Of Research & Sponsored P,Brooklyn,NY,11210,United States
321,IL Fellowships,,Arlington,IL,22230,United States
4990,"UNAVCO, Inc.",6350 Nautilus Dr.,Boulder,CO,80301,United States
1912,University of South Dakota Main Campus,414 E Clark St,Vermillion,SD,57069,United States
8394,The Methodist Hospital Research Institute,6565 Fannin,Houston,TX,77030,United States
10327,"FarCo Technologies, Inc.",95 Joralemon Street,Brooklyn,NY,11201,United States
2164,Marist College,3399 North Road,Poughkeepsie,NY,12601,United States
8896,Aquatic Sensor Network Technology LLC,5 Homestead Dr.,Storrs Mansfield,CT,06268,United States
5419,SPEEDATECH LLC,3348 S. Old Ridge Rd.,Columbia,MO,65203,United States
2969,University of North Texas Health Science Center at Fort Worth,3500 Camp Bowie Blvd.,Fort Worth,TX,76107,United States
5349,American Ceramic Society,600 N. Cleveland Avenue,Westerville,OH,43082,United States
2204,Association Computing Machinery,2 Penn Plaza,New York,NY,10121,United States
2273,Henry M Jackson Fdn for Advmt of Military Medicine,6720a Rockledge Drive,Bethesda,MD,20817,United States
2166,Social Science Education Consortium Inc,5541 Central Avenue,Boulder,CO,80301,United States
123,West Virginia University Research Corporation,P.o. Box 6845,Morgantown,WV,26506,United States
6323,Evans Michael S,,La Jolla,CA,92093,United States
4805,California Lutheran University,60 West Olsen Road,Thousand Oaks,CA,91360,United States
1374,Franklin Institute Science Museum,222 North 20th Street,Philadelphia,PA,19103,United States
398,Central Washington University,400 E. University Way,Ellensburg,WA,98926,United States
4988,Franklin W. Olin College of Engineering,Olin Way,Needham,MA,02492,United States
10117,Cohen Adam S,,Santa Barbara,CA,93106,United States
1950,Fred Hutchinson Cancer Research Center,1100 Fairview Ave N J6-300,Seattle,WA,98109,United States
127,Society for Integrative and Comparative Biology,1313 Dolley Madison Blvd,Mclean,VA,22101,United States
11483,Shared Spectrum Company,1593 Spring Hill Road,Vienna,VA,22182,United States
11395,Private Machines Inc.,Po Box 4056,Stony Brook,NY,11790,United States
1707,Long Island University,700 Northern Blvd,Greenvale,NY,11548,United States
2444,Greenville Technical College,P O Box 5616 Station B,Greenville,SC,29606,United States
625,DePaul University,1 East Jackson Boulevard,Chicago,IL,60604,United States
453,Claremont Graduate University,150 East Tenth Street,Claremont,CA,91711,United States
334,University of Tulsa,800 S. Tucker Drive,Tulsa,OK,74104,United States
4722,"NOESIS, INC.",10440 Balls Ford Road,Manassas,VA,20109,United States
1960,CORD,601 Lake Air Drive,Waco,TX,76710,United States
9447,Cool Clean Technologies Inc.,915 Blue Gentian Rd,Saint Paul,MN,55121,United States
7986,Ubiquiti Inc.,122 South Main Street,Ann Arbor,MI,48104,United States
2963,Sciencenter,601 First Street,Ithaca,NY,14850,United States
2118,Capitol College,11301 Springfield Road,Laurel,MD,20708,United States
1398,Kennesaw State University,"1000 Chastain Rd., #0111",Kennesaw,GA,30144,United States
1771,Accuwave Corporation,2004 San Antonio Dr.,Montebello,CA,90640,United States
1321,University of Texas - Pan American,1201 West University Dr,Edinburg,TX,78541,United States
3129,Erie Community College,121 Ellicott Street,Buffalo,NY,14203,United States
1189,Dine College,P O Box 126,Tsaile,AZ,86556,United States
2980,National Council on Disability,"1331 F Street, Nw",Washington,DC,20004,United States
7556,Machine Science Inc.,649 Massachusetts Avenue,Cambridge,MA,02139,United States
927,International Computer Science Institute,1947 Center St Ste 600,Berkeley,CA,94704,United States
609,Kenyon College,22 Ransom Hall,Gambier,OH,43022,United States
4710,"Butts, Daniel A",,Arlington,VA,22230,United States
627,California State University-Long Beach Foundation,6300 State Univ. Dr.,Long Beach,CA,90815,United States
7554,Indiana University of Pennsylvania Research Institute,1179 Grant Street,Indiana,PA,15701,United States
2342,University of Mary Washington,1301 College Avenue,Fredericksburg,VA,22401,United States
1184,University of Massachusetts Lowell Research Foundation,600 Suffolk Street,Lowell,MA,01854,United States
2363,Murray State University,328 Wells Hall,Murray,KY,42071,United States
5139,"Clark, Christopher G",,D-55128 Mainz,,,Germany
2237,New England Aquarium Corporation,Central Wharf,Boston,MA,02110,United States
2574,"ENGINEERING SCIENCES, INC.",1317 Deans Dr.,Huntsville,AL,35802,United States
4502,Diablo Valley College,321 Golf Club Road,Pleasant Hill,CA,94523,United States
1320,Lawrence Technological University,21000 Ten Mile Road,Southfield,MI,48075,United States
4270,Columbia University Press,562 West 113th Street,New York,NY,10025,United States
159,Harvard University,1350 Massachusetts Ave,Cambridge,MA,02138,United States
7619,Fulbright Academy of Science & Technology,Po Box Cc-284,Cape Elizabeth,ME,04107,United States
51,University of Iowa,2 Gilmore Hall,Iowa City,IA,52242,United States
34,Virginia Polytechnic Institute and State University,1880 Pratt Drive,Blacksburg,VA,24060,United States
285,Saint John's College,,Annapolis,MD,21404,United States
912,Skidmore College,815 North Broadway,Saratoga Springs,NY,12866,United States
3293,Twin Cities Public Television,172 East Fourth Street,St. Paul,MN,55101,United States
9564,"Sensys Networks, Inc.",1608 Fourth Street,Berkeley,CA,94710,United States
1982,La Salle University,1900 West Olney Avenue,Philadelphia,PA,19141,United States
95,Louisiana State University & Agricultural and Mechanical College,202 Himes Hall,Baton Rouge,LA,70803,United States
2130,Wallace Community College Selma,P O Drawer 1049,Selma,AL,36702,United States
139,East Tennessee State University,P O Box 70565,Johnson City,TN,37614,United States
287,The Scripps Research Institute,10550 N Torrey Pines Rd,La Jolla,CA,92037,United States
3648,"Kakade, Sham M",,Pomona,CA,91766,United States
4331,"GINER ELECTROCHEMICAL SYSTEMS, LLC",89 Rumford Ave,Auburndale,MA,02466,United States
1797,Bend Research Inc,64550 Research Road,Bend,OR,97701,United States
769,Association of Computer & Information Science/ENG Depart Min Ins,P.o. Box 672 Ecsu,Elizabeth City,NC,27909,United States
1195,Sonoma State University,1801 East Cotati Avenue,Rohnert Park,CA,94928,United States
191,Boston College,140 Commonwealth Avenue,Chestnut Hill,MA,02467,United States
3900,CUNY York College,94-20 Guy R. Brewer Boulevard,Jamaica,NY,11451,United States
7741,"Stealth Software Technologies, LLC",12014 Texas Ave,Los Angeles,CA,90025,United States
6581,SILVUS COMMUNICATION SYSTEMS INC,10990 Wilshire Blvd,Los Angeles,CA,90024,United States
6065,"Intrigue Technologies, Inc.","800 Old Pond Road, Ste. 705",Bridgeville,PA,15017,United States
278,Colby College,4000 Mayflower Hill,Waterville,ME,04901,United States
8834,SANDIA CORPORATION,1515 Eubank Blvd Se,Albuquerque,NM,87123,United States
3016,Southeastern Universities Research Association,1201 New York Avenue Nw,Washington,DC,20005,United States
268,Kent State University,Office Of The Comptroller,Kent,OH,44242,United States
7175,"Florida Institute for Human and Machine Cognition, Inc.",40 S. Alcaniz St.,Pensacola,FL,32502,United States
1422,Intercultural Development Research Association,"5815 Callaghan Road, Suite 101",San Antonio,TX,78228,United States
1377,Science Museum of Minnesota,120 West Kellogg Boulevard,Saint Paul,MN,55102,United States
795,Old Colorado City Communication,918 Panorama Drive,Colorado Springs,CO,80904,United States
5982,"Integre Technical Publishing Company, Inc.","4015 Carlisle Ne, Suite A",Albuquerque,NM,87107,United States
7180,Rocky Mountain Regional CASU,Denver Federal Center,Denver,CO,80225,United States
6,University of Notre Dame,940 Grace Hall,Notre Dame,IN,46556,United States
9037,Vanderbilt University,Office Of Sponsored Programs,Nashville,TN,37240,United States
4908,MICROLINK DEVICES INC,6457 W Howard St,Niles,IL,60714,United States
2414,"California State University, Chico Research Fdtn",Office Of Sponsored Programs,Chico,CA,95929,United States
4321,Lac Courte Oreilles Ojibwa Community College,13466 W Trepania Road,Hayward,WI,54843,United States
4433,Clemson University Research Foundation,300 Brackett Hall,Clemson,SC,29634,United States
8555,"Kerner Graphics, Inc.",90 Windward Way,San Rafael,CA,94901,United States
61,San Francisco State University,1600 Holloway Ave,San Francisco,CA,94132,United States
3022,SETI Institute,189 Bernardo Ave.,Mountain View,CA,94043,United States
593,"University Enterprises, Incorporated",6000 J Street,Sacramento,CA,95819,United States
390,Carnegie Institution of Washington,1530 P St Nw,Washington,DC,20005,United States
3688,"Community College of Baltimore County, Catonsville",800 South Rolling Road,Catonsville,MD,21228,United States
4033,Governors State University,One University Parkway,University Park,IL,60466,United States
358,National Institutes of Health,,Washington,DC,20233,United States
294,Syracuse University,Office Of Sponsored Programs,Syracuse,NY,13244,United States
11560,"Clear Guide Medical, LLC",40 Warrenton Rd,Baltimore,MD,21210,United States
6838,"SenSound, LLC",221 Lewsiton Rd,Grosse Pointe Farms,MI,48236,United States
11711,Schloss Dagstuhl - Leibniz Zentrum fuer Informatik GmbH,Oktavie-allee,66687 Wadern,,,Germany
6255,Allen Michael T,,New London,CT,06320,United States
6068,CogniTech Corporation,1060 East 100 South,Salt Lake City,UT,84102,United States
3672,Council for Excellence in Government,1301 K Street Nw,Washington,DC,20005,United States
6067,"Vacuum Process Technology,Inc.",70 Industrial Park Road,Plymouth,MA,02360,United States
47,Georgia Tech Research Corporation,Office Of Sponsored Programs,Atlanta,GA,30332,United States
5262,American Council on Education,"One Dupont Circle, Nw",Washington,DC,20036,United States
1335,Xavier University,3800 Victory Parkway,Cincinnati,OH,45207,United States
679,Edison Community College,8099 College Parkway S.w.,Fort Myers,FL,33919,United States
104,Arizona State University,Orspa,Tempe,AZ,85281,United States
263,Truman State University,100 E. Normal,Kirksville,MO,63501,United States
699,Baylor University,One Bear Place #97360,Waco,TX,76798,United States
2330,Medico-Technological Research Institute,4262 Alabama Avenue South,St. Louis Park,MN,55416,United States
134,SUNY at Buffalo,402 Crofts Hall,Buffalo,NY,14260,United States
4491,Kean University,1000 Morris Avenue,Union,NJ,07083,United States
3267,Russell Sage Foundation,,New York,NY,10017,United States
166,Northeastern University,360 Huntington Ave,Boston,MA,02115,United States
528,North Carolina Agricultural & Technical State University,1601 E. Market Street,Greensboro,NC,27411,United States
5304,ViewPoints Research Institute Inc.,1209 Grand Central Ave.,Glendale,CA,91201,United States
1952,Louisiana State University Shreveport,One University Place,Shreveport,LA,71115,United States
9814,Polyradiant Technology,4397 Park Monte Nord,Calabasas,CA,91302,United States
3419,Lawrence North High School,7802 Hague Road,Indianapolis,IN,46256,United States
4613,"Servedio, Rocco A",,Brookline,MA,02446,United States
2126,Ferndale Area School District,100 Dartmouth Avenue,Johnstown,PA,15905,United States
5927,CompositeMirrorApplicationsInc.,1638 S. Research Loop #100,Tucson,AZ,85710,United States
1304,California State University-San Bernardino Foundation,5500 University Parkway,San Bernardino,CA,92407,United States
265,University of Missouri-Kansas City,5100 Rockhill Road,Kansas City,MO,64110,United States
18,University of Puerto Rico Mayaguez,Call Box 9000,Mayaguez,PR,00681,United States
3221,"MUSYN, Inc.",Po Box 13377,Minneapolis,MN,55414,United States
77,University of California-Los Angeles,"11000 Kinross Avenue, Suite 211",Los Angeles,CA,90095,United States
2457,Harvest Technology,9253 Glenoaks Boulevard,Sun Valley,CA,,United States
4859,National Institute of Bioimaging and Bioengineering,"Off Of Extramural Res, Nih/nibib",Bethesda,MD,20892,United States
8315,"Sand 9, Inc.",One Kendall Square,Cambridge,MA,02139,United States
9043,University of Miami,1320 S. Dixie Highway Suite 650,Coral Gables,FL,33146,United States
11605,"SplendorStream, LLC",10404 Skyflower Dr,Austin,TX,78759,United States
660,New School University,66 West 12th Street,New York,NY,10011,United States
1291,North Dakota State College of Science,800 North 6th Street,Wahpeton,ND,58076,United States
564,University of Massachusetts Medical School,55 Lake Avenue North,Worcester,MA,01655,United States
770,Beloit College,700 College Street,Beloit,WI,53511,United States
4047,Southern Polytechnic State University,1100 S. Marietta Parkway,Marietta,GA,30060,United States
8882,"Oncoscope, Inc.",324 Blackwell St.,Durham,NC,27701,United States
4799,Southwestern University,P. O. Box 770,Georgetown,TX,78627,United States
1730,The College of New Jersey,P.o. Box 7718,Ewing,NJ,08628,United States
754,Massachusetts Education Computer Network,75 Arlington St Rm. 500,Boston,MA,02116,United States
9133,University of San Diego,5998 Alcala Park M264,San Diego,CA,92110,United States
9095,Valiant Paul A,,Belmont,MA,02478,United States
594,D'Youville College,320 Porter Avenue,Buffalo,NY,14201,United States
208,CUNY Hunter College,695 Park Avenue,New York,NY,10065,United States
2265,Southeastern Louisiana University,Slu 10508,Hammond,LA,70402,United States
8444,Minnesota State College - Southeast Technical,1250 Homer Road,Winona,MN,55987,United States
3124,Foothill College,12345 El Monte Road,Los Altos Hills,CA,94022,United States
1162,Louisiana Board of Regents,1201 N. Third Street,Baton Rouge,LA,70802,United States
612,Rush-Presbyterian-St Luke's Med Center,1653 West Congress Parkway,Chicago,IL,60612,United States
2427,University of New England,11 Hills Beach Road,Biddeford,ME,04005,United States
229,National Academy of Sciences,500 Fifth Street Nw,Washington,DC,20001,United States
688,Interface Foundation of North America Inc,P.o. Box 7460,Fairfax Station,VA,22039,United States
6073,PRIME RESEARCH LC,"1116 South Main Street, Ste 200",Blacksburg,VA,24060,United States
2197,Central Electronics Engineering Res Inst,,Pilani,,,India
10247,Art Center College of Design,1700 Lida Street,Pasadena,CA,91103,United States
10990,Universidad Central del Caribe,P. O. Box 60327,Bayamon,PR,00960,United States
4639,"Mann, William R",,Cambridge,MA,02138,United States
446,Winona State University,175 W. Mark St.,Winona,MN,55987,United States
55,Clemson University,300 Brackett Hall,Clemson,SC,29634,United States
869,Universities Space Research Association,10211 Wincopin Circle,Columbia,MD,21044,United States
7521,"Chiang, Patrick Y",,Sacramento,CA,95822,United States
12002,Veriflow Systems,1509 Quaker Hollow Ct S,Buffalo Grove,IL,60089,United States
3897,Society For Computer Simulation (SCS),,San Diego,CA,92109,United States
86,North Carolina State University,Campus Box 7514,Raleigh,NC,27695,United States
2322,Connecticut Academy for Education,211 South Main Street,Middletown,CT,06457,United States
1716,University of the District of Columbia,4200 Connecticut Ave Nw,Washington,DC,20008,United States
7360,Mainstream Engineering Corporation,200 Yellow Place,Rockledge,FL,32955,United States
5174,American Library Association,50 East Huron Street,Chicago,IL,60611,United States
7282,Wild Salmon Center,721 Nw Ninth Ave,Portland,OR,97209,United States
9808,Alfred I du Pont Hospital for Children,1600 Rockland Road,Wilmington,DE,19803,United States
1294,SUNY Institute of Technology Utica-Rome,Sunyit,Utica,NY,13502,United States
768,American Mathematical Society,201 Charles St,Providence,RI,02904,United States
1914,Denison University,P O Box 713,Granville,OH,43023,United States
2871,Cambria County Area Community College,727 Goucher Street,Johnstown,PA,15905,United States
454,University of the South,735 University Avenue,Sewanee,TN,37383,United States
1388,"St. Paul Public School, ISD 625",360 Colborne Street,St. Paul,MN,55102,United States
2433,Salish Kootenai College,P O Box 70,Pablo,MT,59855,United States
132,"Verizon Laboratories, Inc.",,Waltham,MA,02154,United States
468,Coastal Carolina University,P O Box 261954,Conway,SC,29528,United States
2391,Alabama A&M University,P O Box 411,Normal,AL,35762,United States
5905,Intelligent Prosthetic Systems,2811 Lillian Rd.,Ann Arbor,MI,48104,United States
2976,Department of the Air Force Brooks Air Force Base,,San Antonio,TX,78235,United States
2339,Contra Costa Community College,2600 Mission Bell Drive,San Pablo,CA,94806,United States
3887,Stroud Water Research Center,970 Spencer Road,Avondale,PA,19311,United States
444,Lasell Junior College,1844 Commonwealth Ave,Newton,MA,02166,United States
755,American Society of Civil Engineers,1801 Alexander Bell Drive,Reston,VA,20191,United States
2403,West Virginia University/Parkersburg,Route 5 Box 167a,Parkersburg,WV,26101,United States
202,Catholic University of America,620 Michigan Ave.n.e.,Washington,DC,20064,United States
6548,Houston Advanced Research Center,4800 Research Forest Dr,The Woodlands,TX,77381,United States
9279,NDM Labs,21 Cougar Ridge Rd,Santa Fe,NM,87505,United States
1171,Tennessee State University,3500 John A. Merritt Blvd.,Nashville,TN,37209,United States
2276,Medical College of Georgia Research Institute Inc,1120 Fifteenth Street,Augusta,GA,30912,United States
1240,Middlebury College,9 Old Chapel Road,Middlebury,VT,05753,United States
11596,"Solid Power, LLC",686 S. Taylor Ave.,Louisville,CO,80027,United States
4833,Fond du Lac Tribal and Community College,2101 14th Street,Cloquet,MN,55720,United States
2254,Slippery Rock University of Pennsylvania,1 Morrow Way,Slippery Rock,PA,16057,United States
118,Duke University,"2200 W. Main St, Suite 710",Durham,NC,27705,United States
11673,Effimax Solar INC,60 Hazelwood Dr,Champaign,IL,61820,United States
8181,Shepherd University Research Corporation,Administration & Finance,Shepherdstown,WV,25443,United States
5767,21st Century School Fund,"1816 12th Street, Nw","Washington, Dc",DC,20009,United States
5895,Phase Bioscience,1822 E. Hwy 54,Durham,NC,27713,United States
9459,PoroGen LLC,6c Gill Street,Woburn,MA,01801,United States
1310,West Virginia Wesleyan College,59 College Avenue,Buckhannon,WV,26201,United States
5713,University of Arkansas at Pine Bluff,1200 University Drive,Pine Bluff,AR,71601,United States
8592,"CVISION Technologies, Inc.","118-35 Queens Blvd. , 14th Floor",Forest Hills,NY,11375,United States
4488,Immaculata University,1145 King Road,Immaculata,PA,19345,United States
7027,Rehabilitation Engineering and Assistive Tech Society of NA,1700 North Moore Street,Arlington,VA,22209,United States
1894,NGIMAT CO.,1824 Willow Trail Pkwy,Norcross,GA,30093,United States
5619,"Holder, Mark T",,Tallahassee,FL,32310,United States
99,Washington State University,"Neill Hall, Room 423",Pullman,WA,99164,United States
152,Saint Louis University,221 N. Grand Blvd.,St Louis,MO,63103,United States
2883,NYSERNet Inc,100 South Salina Street,Syracuse,NY,13202,United States
11162,Asheville-Buncombe Technical Community College,340 Victoria Road,Asheville,NC,28801,United States
1287,University of Portland,5000 N Willamette Blvd,Portland,OR,97203,United States
913,North Star Research Corporation,"4421 Mcleod, Ne, Ste A",Albuquerque,NM,87109,United States
4556,"The Conference Board, Inc.",845 Third Avenue,New York,NY,10022,United States
6476,Parkland College,2400 W. Bradley Ave.,Champaign,IL,61821,United States
549,Eastern Michigan University,Office Of Research Development,Ypsilanti,MI,48197,United States
54,University of South Carolina at Columbia,Sponsored Awards Management,Columbia,SC,29208,United States
8384,Children's Hospital and Regional Medical Center,4800 Sand Point Way Ne,Seattle,WA,98105,United States
5595,"Samuel Roberts Noble Foundation, Inc.",2510 Sam Noble Parkway,Ardmore,OK,73402,United States
1992,Paleontological Research Institute,1259 Trumansburg Road,Ithaca,NY,14850,United States
2344,University of Central Arkansas,201 Donaghey Avenue,Conway,AR,72035,United States
1257,Kalamazoo College,1200 Academy Street,Kalamazoo,MI,49006,United States
70,University of South Florida,3702 Spectrum Blvd.,Tampa,FL,33612,United States
11638,GraphSQL INC,327 Anita Drive,Millbrae,CA,94030,United States
9920,"PlastiPure, Inc.",11212 Metric Boulevard,Austin,TX,78758,United States
7703,Kaizen Consulting Inc.,1613 Onon Daga Drive,Geneva,FL,32732,United States
1433,Atlanta Metropolitan College,1630 Metropolitan Parkway Sw,Atlanta,GA,30310,United States
2659,"Advanced Network & Services, Inc",200 Business Park Drive,Armonk,NY,10504,United States
8536,Stewart Charles E,,Des Moines,IA,50311,United States
416,Tufts University,20 Professors Row,Medford,MA,02155,United States
4600,"Hallgren, Sean J",,Berkeley,CA,94710,United States
5285,Associated Universities Inc/National Radio Astronomy Observatory,1400 16th St Nw Ste 730,Washington,DC,20036,United States
253,Nova Southeastern University,3301 College Ave,Fort Lauderdale,FL,33314,United States
1177,SUNY College at Old Westbury,Box 210,Old Westbury,NY,11568,United States
2908,CUNY College of Staten Island,2800 Victory Boulevard,Staten Island,NY,10314,United States
4011,Milwaukee Area Technical College,700 West State Street,Milwaukee,WI,53233,United States
511,Gustavus Adolphus College,800 W. College Ave,Saint Peter,MN,56082,United States
2136,California College of Podiatric Medicine,1210 Scott Street,San Francisco,CA,94115,United States
11783,wondervisions,Po Box 7113,Bend,OR,97708,United States
3052,New Jersey City University,2039 Kennedy Boulevard,Jersey City,NJ,07305,United States
5141,Dillard University,2601 Gentilly Boulevard,New Orleans,LA,70112,United States
1391,Gallaudet University,"800 Florida Avenue, Ne",Washington,DC,20002,United States
3687,Western Wisconsin Technical College,400 Seventh Street North,La Crosse,WI,54602,United States
4210,Molecular Sciences Institute,2168 Shattuck Avenue,Berkeley,CA,94704,United States
791,Idaho State University,"921 South 8th Avenue, Stop 8046",Pocatello,ID,83209,United States
8535,Fernandez Eduardo J,,Bloomington,IN,47405,United States
1983,Seton Hall University,400 South Orange Avenue,South Orange,NJ,07079,United States
11710,Dynamic Spectrum Limited Liability Company,3 Hixon Terrace,Holmdel,NJ,07733,United States
279,University of Houston - Downtown,One Main Street,Houston,TX,77002,United States
656,FRIDAY SYSTEMS SERVICES INC,7501 Greenway Center Drive,Greenbelt,MD,20770,United States
142,Brandeis University,415 South St Mailstop 116,Waltham,MA,02454,United States
8874,Jodange Inc,92 Main St.,Yonkers,NY,10701,United States
130,Gordon Research Conferences,512 Liberty Lane,West Kingston,RI,02892,United States
3288,Oregon Museum of Science and Industry,1945 Se Water Ave,Portland,OR,97214,United States
4515,Texas Engineering Extension Service,,College Station,TX,77840,United States
9648,Nelson Peter A,,Berkeley,CA,94710,United States
3967,US Army Corps of Engineers,Transatlantic Programs Center,Winchester,VA,22604,United States
3570,Maryland Science Center,601 Light Street,Baltimore,MD,21230,United States
7964,"Yantric, Inc.",31 Cross Street,West Newton,MA,02465,United States
2064,Utah Valley University,800 West University Parkway,Orem,UT,84058,United States
7751,Clados Management LLC,133 Saint Matthews Avenue,San Mateo,CA,94401,United States
3257,"Allegheny University of the Health Science, Pittsburgh",One Allegheny Center,Pittsburgh,PA,15212,United States
5336,ESHOPPERTOOLS.COM INC,673 Nw Jackson Ave,Corvallis,OR,97330,United States
4387,"Sutherland, James D",,Monterotondo Italy,NA,00016,Italy
96,University of Wisconsin-Milwaukee,P O Box 340,Milwaukee,WI,53201,United States
328,Fellowships,,Arlington,VA,22230,United States
3286,Unicorn Projects Inc,"C/o Polan, White & Associates",Rockville,MD,20850,United States
1119,Sierra Middle School,1700 E Spruce,Las Cruces,NM,88001,United States
2103,Texas A&M University Corpus Christi,6300 Ocean Drive,Corpus Christi,TX,78412,United States
53,Texas Tech University,349 Administration Bldg,Lubbock,TX,79409,United States
276,Neumann College,Concord Road,Aston,PA,19014,United States
2594,Maine Medical Center,22 Bramhall Street,Portland,ME,04102,United States
168,University of Mississippi,100 Barr Hall,University,MS,38677,United States
1289,Fairmont State College,1201 Locust Avenue,Fairmont,WV,26554,United States
5259,ETR Associates,4 Carbonero Way,Scotts Valley,CA,95066,United States
5843,Southeast TechInventures,"100 Capitola Dr, Ste 275",Durham,NC,27713,United States
4945,Keck Graduate Institute,535 Watson Drive,Claremont,CA,91711,United States
302,College of Charleston,66 George St,Charleston,SC,29424,United States
2306,Monmouth University,400 Cedar Avenue,West Long Branch,NJ,07764,United States
2377,"California State University, East Bay",25800 Carlos Bee Boulevard,Hayward,CA,94542,United States
1968,Geological Society of America Today,3300 Penrose Pl,Boulder,CO,80301,United States
2124,Bradford College,South Main Street,Haverhill,MA,01835,United States
762,AIMBE,"1901 Pennsylvania Ave. Nw, #401",Washington,DC,20006,United States
9217,Bucknell University,One Dent Drive,Lewisburg,PA,17837,United States
3567,Neurosciences Research Foundation Inc,10640 John Jay Hopkins Drive,San Diego,CA,92121,United States
11721,"Morgridge Institute for Research, Inc.",330 North Orchard Street,Madison,WI,53715,United States
2962,Goodman Research Group Inc,929 Massachusetts Ave.,Cambridge,MA,02139,United States
9627,The Software Defined Radio Forum Inc.,12100 Sunset Hills Road,Reston,VA,20190,United States
7695,"Mersive Technologies, LLC",137 West Vine,Lexington,KY,40507,United States
8823,Human Relations Area Files,755 Prospect Street,New Haven,CT,06511,United States
621,"Haskins Laboratories, Inc.",300 George Street,New Haven,CT,06511,United States
1813,"Cape Cod Research, Incorporated",19 Research Road,East Falmouth,MA,02536,United States
4448,National Center for Genome Resources,2935 Rodeo Park Drive East,Santa Fe,NM,87505,United States
483,Winston-Salem State University,"601 Martin Luther King Jr., Driv",Winston-salem,NC,27110,United States
12172,Primordial Genetics LLC,1155 Camino Del Mar #148,Del Mar,CA,92014,United States
910,Mount Desert Island Biological Laboratory,Po Box 35,Salsbury Cove,ME,04672,United States
2251,Insightful Corporation,1700 Westlake Ave N # 500,Seattle,WA,98109,United States
6237,Hayes Thomas P,,Chicago,IL,60605,United States
6042,Digital Blue Incorporated,4885 Olde Towne Pkwy Suite 101,Marietta,GA,30062,United States
554,Radcliffe College,10 Garden Street,Cambridge,MA,02138,United States
537,Decision Science Research Institute,"1201 Oak Street, Suite 200",Eugene,OR,97401,United States
635,Trinity University,One Trinity Place,San Antonio,TX,78212,United States
11429,Templeman Automation LLC,21 Properzi Way Suite P,Somerville,MA,02143,United States
1247,Los Angeles Pierce College,6201 Winnetka Avenue,Woodland Hills,CA,91371,United States
6053,INCOGEN INC,460 Mclaws Circle,Williamsburg,VA,23185,United States
4861,"Huntington Library, Art Collections, and Botanical Gardens",1151 Oxford Road,San Marino,CA,91108,United States
2407,Rhode Island College,600 Mount Pleasant Ave,Providence,RI,02908,United States
1989,Manhattan College,4513 Manhattan College Parkway,Bronx,NY,10471,United States
91,"United Engineering Trustees, Inc.",,New York,NY,10017,United States
1393,Los Angeles County Museum of Natural History Foundation,900 Exposition Boulevard,Los Angeles,CA,90007,United States
6532,"FACET Innovations, LLC",1314 Ne 43rd Street,Seattle,WA,98105,United States
2393,Rancho Santiago Community College District,2323 North Broadway,Santa Ana,CA,92706,United States
258,Centre College of Kentucky,West Walnut Street,Danville,KY,40422,United States
525,Sigma XI Scientific Research Society,P O Box 13975,Research Triangle Park,NC,27709,United States
10109,Campbell Matthew A,,Fairbanks,AK,99775,United States
4272,Saint Peter's College,2641 Kennedy Boulevard,Jersey City,NJ,07306,United States
1330,Appalachian State University,P.o. Box 32068,Boone,NC,28608,United States
2009,Western Carolina University,440 Hfr Admin Bldg,Cullowhee,NC,28723,United States
3319,National Biomedical Research Foundation,3900 Reservoir Rd Nw,Washington,DC,20007,United States
7371,The Shepherd Color Company,4539 Dues Drive,Cincinnati,OH,45246,United States
6668,Bedford Central School Distrcit,Box 180,Mt. Kisco,NY,10549,United States
557,California State University-Fresno Foundation,4910 N. Chestnut Ave,Fresno,CA,93726,United States
4351,Invistics Corporation,5445 Triangle Parkway Suite 300,Norcross,GA,30092,United States
32,University of Missouri-Columbia,310 Jesse Hall,Columbia,MO,65211,United States
2038,California State University-Los Angeles,5151 State University Dr,Los Angeles,CA,90032,United States
579,The Richard Stockton College of New Jersey,101 Vera King Farris Drive,Galloway,NJ,08205,United States
1252,Marietta College,215 Fifth St.,Marietta,OH,45750,United States
786,American Society For Microbiology,1752 N Street Nw,Washington,DC,20036,United States
339,California Academy of Sciences,55 Music Concourse Drive,San Francisco,CA,94118,United States
2010,Brigham & Women's Hospital Inc,75 Francis Street,Boston,MA,02115,United States
376,Bernice P Bishop Museum,1525 Bernice Street,Honolulu,HI,96817,United States
5949,Western Nevada Community College,2201 West College Parkway,Carson City,NV,89703,United States
2120,Lawson State Community College,3060 Wilson Road S W,Birmingham,AL,35221,United States
2449,Independent Colleges Office,"1730 Rhode Island Avenue, Nw",Washington,DC,20036,United States
7720,"Interactive Supercomputing, Inc.",135 Beaver Street,Waltham,MA,02452,United States
4625,"Miller, Scott R",,Moffett Field,CA,94035,United States
11587,Azusa Pacific University,Citrus And Alosta,Azusa,CA,91702,United States
133,Utah State University,Sponsored Programs Office,Logan,UT,84322,United States
2142,University of La Verne,1950 3rd Street,La Verne,CA,91750,United States
4380,Mississippi Delta Community College,Olive Street Box 668,Moorhead,MS,38761,United States
1766,"Wamax, Inc","4473 142nd Avenue, Se",Bellevue,WA,98006,United States
548,American Association of Physics Teachers,One Physics Ellipse,College Park,MD,20740,United States
2309,SUNY College at New Paltz,"Sponsored Programs, Hab 805",New Paltz,NY,12561,United States
1444,Austin Community College,5930 Middle Fiskville Road,Austin,TX,78752,United States
31,Northwestern University,1801 Maple Ave.,Evanston,IL,60201,United States
592,New York Academy of Sciences,"7 Wtc, 40th Fl",New York,NY,10007,United States
4946,NatureServe,"4600 N. Fairfax Dr., 7th Floor",Arlington,VA,22203,United States
9618,PolarOnyx Inc.,"2526 Qume Drive, #17",San Jose,CA,95131,United States
2383,Canisius College,2001 Main Street,Buffalo,NY,14208,United States
5777,University of Tampa,401 W Kennedy Boulevard,Tampa,FL,33606,United States
3252,"M V SYSTEMS, INC",17301 W Colfax Ave Ste 305,Golden,CO,80401,United States
215,Clark Atlanta University,223 James P. Brawley Dr. S.w.,Atlanta,GA,30314,United States
2046,"Merit Network, Inc.",1000 Oakbrook Drive,Ann Arbor,MI,48104,United States
2173,Horizon Research Inc,326 Cloister Ct,Chapel Hill,NC,27514,United States
2250,Tusculum College,P O Box 5048,Greeneville,TN,37743,United States
2398,Central Oregon Community College,2600 Nw College Way,Bend,OR,97701,United States
6752,"Kleinberg, Robert D",,Berkeley,CA,94710,United States
498,Southern Illinois University at Edwardsville,Campus Box 1046,Edwardsville,IL,62026,United States
9812,"International Fine Particle Research Institute, Inc.",C/o Corporation Service Company,Wilmington,DE,19805,United States
9770,Ligett Katrina,,Ithaca,NY,14853,United States
3903,Benedictine University,5700 College Road,Lisle,IL,60532,United States
121,Illinois State University,North And School Streets,Normal,IL,61790,United States
90,University of Toledo,"2801 W Bancroft St., Ms 944",Toledo,OH,43606,United States
227,University of Nebraska Medical Center,987835 Nebraska Medical Center,Omaha,NE,68198,United States
5886,BIODETECTION INSTRUMENTS LLC,"535 W Research Blvd,",Fayetteville,AR,72701,United States
7969,"Cilk Arts, Inc",12 Waltham Street,Lexington,MA,02421,United States
4085,"Gratings, Incorporated",2700b Broadbent Pkwy Ne,Albuquerque,NM,87107,United States
5565,New Hampshire Community Techical College Manchester/Stratham,1066 Front Street,Manchester,NH,03102,United States
5235,THE ATHENA GROUP INC,408 West University Avenue,Gainesville,FL,32601,United States
874,Stevens Institute of Technology,Castle Point On Hudson,Hoboken,NJ,07030,United States
2123,IBM Thomas J Watson Research Center,1101 Kitchawan Road,Yorktown Heights,NY,10598,United States
223,University of Idaho,Office Of Sponsored Programs,Moscow,ID,83844,United States
2923,Hazardous materials Training and Research Center,Eiccd,Davenport,IA,52801,United States
639,Institute of Global Environment and Society,"4041 Powder Mill Road, Suite 302",Calverton,MD,20705,United States
4959,The Texas A&M University System HSC Research Foundation,3578 Tamu,College Station,TX,77843,United States
3840,Department of Labor,,Washington,DC,20233,United States
245,Louisiana Tech University,P O Box 3168 Tech Station,Ruston,LA,71272,United States
5723,Reed Denne N,,Washington,DC,20233,United States
2138,Jamestown College,,Jamestown,ND,58401,United States
6923,Kientz Julie A,,Atlanta,GA,30322,United States
8327,AppliFlex LLC,Po Box 159293,Nashville,TN,37215,United States
8885,Omniprobe,10410 Miller Road,Dallas,TX,75238,United States
4302,"International Technology Research Institute, Inc (ITRI, Inc)",518 S. Camp Meade Rd. Suite 6,Linthicum,MD,21090,United States
12344,Applied Quantum Enovation LLC,2014 Hallbrooke Ct,Norman,OK,73071,United States
9057,Middlebury College,14 Old Chapel Road,Middlebury,VT,05753,United States
1221,University of Texas at Brownsville,80 Fort Brown,Brownsville,TX,78520,United States
5662,Chen Johnny S,,College Station,TX,77840,United States
8349,"Carley Technologies, Inc.",1924 Glen Mitchell Road,Sewickley,PA,15143,United States
9100,Anderson David E,,Ann Arbor,MI,48109,United States
17,Kansas State University,2 Fairchild Hall,Manhattan,KS,66506,United States
1445,Trident Technical College,P O Box 118067,Charleston,SC,29423,United States
4512,University of North Carolina General Administration Office,Po Box 2688,Chapel Hill,NC,27515,United States
802,Corporation for National Research Initiatives (NRI),1895 Preston White Drive,Reston,VA,20191,United States
2027,"Recording for the Blind, Inc.",20 Roszel Road,Princeton,NJ,08540,United States
59,University of Alaska Fairbanks Campus,West Ridge Research Bldg 008,Fairbanks,AK,99775,United States
9036,"Board of Regents, NSHE, obo University of Nevada, Reno",1664 North Virginia Street,Reno,NV,89557,United States
4806,Beth Israel Deaconess Medical Center,330 Brookline Avenue,Boston,MA,02215,United States
2302,"Consortium for Ocean Leadership, Inc","1201 New York Avenue, N W.",Washington,DC,20005,United States
1313,Tuskegee University,58 Tuskegee University,Tuskegee,AL,36088,United States
5129,"Miller, Jon M",,Cambridge,MA,02138,United States
10366,Turk Matthew J,,La Jolla,CA,92093,United States
122,Vanderbilt University,Division Of Sponsored Research,Nashville,TN,37240,United States
2121,Palm Beach State College,4200 Congress Avenue,Lake Worth,FL,33461,United States
561,University of Texas Southwestern Medical Center at Dallas,5323 Harry Hines Blvd.,Dallas,TX,75390,United States
9821,"Boulder Nonlinear Systems, Inc.",450 Courtney Way,Lafayette,CO,80026,United States
490,Carnegie Institute,4400 Forbes Avenue,Pittsburgh,PA,15213,United States
8287,"Tokutek, Inc.","1 Militia Drive, Suite 11",Lexington,MA,02421,United States
56,Florida Atlantic University,777 Glades Rd,Boca Raton,FL,33431,United States
1944,University of Houston - Clear Lake,2700 Bay Area Boulevard,Houston,TX,77058,United States
3802,Alantro Communications Incorporated,141 Stony Circle,Santa Rosa,CA,95401,United States
9342,Bellarmine University,2001 Newburg Road,Louisville,KY,40205,United States
92,Optical Society of America,2010 Massachusetts Avenue,Washington,DC,20036,United States
4452,The Society for Organizational Learning,955 Massachusetts Ave.,Cambridge,MA,02139,United States
128,Stanford University,3160 Porter Drive,Palo Alto,CA,94304,United States
5161,"Stubblebine Research Labs, LLC",48 Central Ave Suite B,Madison,NJ,07940,United States
3724,Concordia College at Moorhead,901 South 8th Street,Moorhead,MN,56562,United States
8839,"Virtual Astronomical Observatory, LLC",1400 16th Street Nw Ste 730,Washington,DC,20036,United States
5468,National Society of Black Physicists,1100 N Glebe Road,Arlington,VA,22205,United States
8395,Monterey Institute of International Studies,460 Pierce Street,Monterey,CA,93940,United States
936,WestEd,730 Harrison Street,San Francisco,CA,94107,United States
4504,"Georgia Southern University Research and Service Foundation, Inc",261 Forest Drive,Statesboro,GA,30460,United States
5760,Samford University Foundation,800 Lakeshore Drive,Birmingham,AL,35229,United States
820,Embry-Riddle Aeronautical University,600 S. Clyde Morris Blvd.,Daytona Beach,FL,32114,United States
838,Rose-Hulman Institute of Technology,5500 Wabash Avenue,Terre Haute,IN,47803,United States
4364,"GRAMMATECH, INC.",531 Esty Street,Ithaca,NY,14850,United States
10340,"Innova Dynamics, Inc.","1700 Owens St, Suite 405",San Francisco,CA,94158,United States
5310,National Aeronautics and Space Administration,"4800 Oak Grove Drive,",Pasadena,CA,91109,United States
1239,Capital University,One College And Main,Columbus,OH,43209,United States
1456,CUNY New York City College of Technology,300 Jay Street,Brooklyn,NY,11201,United States
4213,KCP Technologies,1150 65th Street,Emeryville,CA,94608,United States
340,MAXDEM INC,140 E Arrow Hwy,San Dimas,CA,91773,United States
2655,Le Moyne College,Le Moyne Heights,Syracuse,NY,13214,United States
5825,"Applied Quantum Systems, Inc",17170 Fremont Ln,Yorba Linda,CA,92886,United States
749,University of Wisconsin-Stout,Po Box 790,Menomonie,WI,54751,United States
5342,LogicMill Technology,400 Amity St,Amherst,MA,01002,United States
2942,University of Nebraska at Omaha,6001 Dodge Street,Omaha,NE,68182,United States
578,Incorporated Research Institutions for Seismology,"1200 New York Avenue, Nw",Washington,DC,20005,United States
843,Massachusetts General Hospital,Research Management,Boston,MA,02114,United States
12101,Christopher K. Wilson LLC,324 Lakeview Way,Woodside,CA,94062,United States
9229,University Enterprises Corporation at CSUSB,5500 University Parkway,San Bernardino,CA,92407,United States
7855,Wright Paul A,,Brooklyn,NY,11203,United States
6420,"NANO-C, INC",33 Southwest Park,Westwood,MA,02090,United States
11832,Lennon William C,,Poway,CA,92064,United States
8423,NATIONAL GEOGRAPHIC SOCIETY,1145 17th St Nw,Washington,DC,20036,United States
9142,University of Colorado at Denver,"Ms F428, Amc Bldg 500",Aurora,CO,80045,United States
8217,"Department of Energy, Office of Scientific and Technical Informa",P.o. Box 62,Oak Ridge,TN,37831,United States
1719,Elizabeth City State University,1704 Weeksville Road,Elizabeth City,NC,27909,United States
620,Central Michigan University,103 Warriner Hall,Mount Pleasant,MI,48859,United States
391,Dartmouth College,Office Of Sponsored Projects,Hanover,NH,03755,United States
2751,Billings Senior High School,425 Grand Avenue,Billings,MT,59101,United States
686,Xavier University of Louisiana,#1 Drexel Drive,New Orleans,LA,70125,United States
7988,Seniton Technology Incorporation,2308 Point Star Dr.,Arlington,TX,76001,United States
5484,Electrical and Computer Engineering Department Heads Association,233 S Wacker Dr,Chicago,IL,60606,United States
7023,Toyota Technological Institute at Chicago,6045 S. Kenwood Avenue,Chicago,IL,60637,United States
273,Rockefeller University,1230 York Avenue,New York,NY,10065,United States
11812,Green Matthew H,,Evanston,IL,60208,United States
6863,STELLAR MICRO DEVICES,2020 Centimeter Cir,Austin,TX,78758,United States
9404,Carroll University,100 North East Avenue,Waukesha,WI,53186,United States
3632,Madison School District #38,5601 N. 16th Street,Phoenix,AZ,85016,United States
103,University of Oregon Eugene,5219 University Of Oregon,Eugene,OR,97403,United States
179,University of Kansas Main Campus,2385 Irving Hill Road,Lawrence,KS,66045,United States
10975,Mozilla Foundation,650 Castro Street,Mountain View,CA,94041,United States
5368,Ziena Optimization Inc.,2615 Hartzell Street,Evanston,IL,60201,United States
2909,"CAST, Inc.",40 Harvard Mills Square,Wakefield,MA,01880,United States
9410,Citizen Schools,Museum Wharf,Boston,MA,02210,United States
1369,Cincinnati Museum Center,1301 Western Avenue,Cincinnati,OH,45203,United States
3809,TEXTWISE LLC,401 South Salina Street,Syracuse,NY,13244,United States
491,MPC Corporation,5000 Forbes Avenue,Pittsburgh,PA,15213,United States
2907,Physical Research Laboratory,,Ahmedabad,,,India
1402,University of Georgia,200 D.w. Brooks Drive,Athens,GA,30602,United States
1349,Pittsburg State University,1701 South Broadway,Pittsburg,KS,66762,United States
7935,"Solidus Biosciences, Inc.",409 Illinois Street,San Francisco,CA,94158,United States
706,United States Naval Academy,589 Mcnair Rd,Annapolis,MD,21402,United States
443,The University of the State of New York,132 State Education Bldg.,Albany,NY,12234,United States
1873,Foster-Miller Inc,350 2nd Ave,Waltham,MA,02451,United States
3217,Christopher A. Brown,192 Elm Street,Norwich,VT,05055,United States
11443,Rigid Solutions LLC,P.o. Box 1554,Shelbyville,KY,40066,United States
405,Sanford-Burnham Medical Research Institute,10901 North Torrey Pines Road,La Jolla,CA,92037,United States
11,Carleton College,One North College Street,Northfield,MN,55057,United States
1947,Jarvis Christian College,P.o. Box 1470,Hawkins,TX,75765,United States
3087,Iowa Lakes Community College,19 South 7th Street,Estherville,IA,51334,United States
164,Michigan Technological University,1400 Townsend Drive,Houghton,MI,49931,United States
29,Texas Engineering Experiment Station,Tees State Headquarters Bldg.,College Station,TX,77845,United States
9642,International Society for Technology in Education,"180west 8th Ave., Suite 300",Eugene,OR,97401,United States
1174,Urban Institute,2100 M St Nw Ste 400,Washington,DC,20037,United States
5281,Hilton Pond Center for Piedmont Natural History,1432 Devinney Road,York,SC,29745,United States
2409,College of the Atlantic,105 Eden Street,Bar Harbor,ME,04609,United States
738,University of North Dakota Main Campus,University Station,Grand Forks,ND,58202,United States
4197,Donald Danforth Plant Science Center,975 N. Warson Rd.,St. Louis,MO,63132,United States
15,Brigham Young University,A-285 Asb,Provo,UT,84602,United States
671,Woods Hole Research Center,149 Woods Hole Road,Falmouth,MA,02540,United States
2061,Santa Ana Unified School District,1405 French Street,Santa Ana,CA,92701,United States
9682,Institute for Earth Science Research and Education,2686 Overhill Drive,Norristown,PA,19403,United States
1262,Alamo Community College District San Antonio College,1300 San Pedro Ave,San Antonio,TX,78207,United States
286,Tennessee Technological University,Dixie Avenue,Cookeville,TN,38501,United States
1976,University of Puerto Rico,Central Administration,San Juan,PR,00931,Puerto Rico
717,Charles Evans & Associates,301 Chesapeake Drive,Redwood City,CA,94063,United States
5875,FIDELITY COMTECH INC,2400 Trade Center Ave,Longmont,CO,80503,United States
495,TERC Inc,2067 Massachusetts Avenue,Cambridge,MA,02140,United States
4198,Lucent Technologies Bell Laboratories,600 Mountain Avenue,Murray Hill,NJ,07974,United States
3590,St Louis Science Center,Foundation,Saint Louis,MO,63110,United States
11670,Lynx Laboratories Inc.,3925 Braker Lane,Austin,TX,78759,United States
10932,"SciTech Strategies, Inc.",2405 White Horse Rd.,Berwyn,PA,19312,United States
155,College of William and Mary,Office Of Sponsored Programs,Williamsburg,VA,23187,United States
42,Clarkson University,8 Clarkson Avenue,Potsdam,NY,13699,United States
7915,Dow Steven,,Atlanta,GA,30322,United States
66,New Mexico State University,Corner Of Espina St. & Stewart,Las Cruces,NM,88003,United States
8762,Berry Jeffrey J,,Tucson,AZ,85721,United States
3743,COHESIA CORPORATION,714 E Monu Ave Ste 120,Dayton,OH,45402,United States
12179,Isthmus Biosciences,5500 Nobel Drive,Fitchburg,WI,53711,United States
4659,Smith Donald A,,Ann Arbor,MI,48109,United States
4110,FETCH TECHNOLOGIES,"841 Apollo St, Suite 400",El Segundo,CA,90245,United States
2218,Butler University,4600 Sunset Avenue,Indianapolis,IN,46208,United States
3659,Southern Growth Policies Board,,Research Triangle Park,NC,27709,United States
692,Aerospace Corporation,P.o. Box 92957,Los Angeles,CA,90009,United States
7987,"Pattern Insight, Inc.",2503 Hallbeck Drive,Champaign,IL,61822,United States
3571,"PERSONNEL MANAGEMENT, U S OFFICE OF",1900 E St Nw Rm 5475,Washington,DC,20415,United States
5596,Union Institute & University,440 E. Mcmillan Street,Cincinnati,OH,45206,United States
2019,"Association of Universities for Research in Astronomy, Inc.","1212 New York Avenue, N.w.,",Washington,DC,20005,United States
566,Creighton University,2500 California Plaza,Omaha,NE,68178,United States
425,University of Puerto Rico at Humacao,Call Box 860,Humacao,PR,00792,United States
314,University of Nevada Desert Research Institute,2215 Raggio Parkway,Reno,NV,89512,United States
12,University of Connecticut,438 Whitney Road Ext.,Storrs,CT,06269,United States
9395,River Valley Community College,One College Drive,Claremont,NH,03743,United States
1997,Indian Institute of Technology Kanpur,,Kanpur,,,India
277,National Bureau of Economic Research Inc,1050 Massachusetts Avenue,Cambridge,MA,02138,United States
835,Society For Industrial and Applied Math (SIAM),Unknown,Philadelphia,PA,19104,United States
7930,"iBiometrics, Inc.",645 Teatown Road,Millwood,NY,10546,United States
2636,Department of Commerce,Ocean.us 2300 Clarendon Blvd.,Arlington,VA,22201,United States
183,Raytheon Technical Services Company,1616 Mccormick Drive,Upper Marlboro,MD,20774,United States
194,Woods Hole Oceanographic Institution,183 Oyster Pond Road,Woods Hole,MA,02543,United States
1410,Mathematical Association of America,1529 18th St Nw,Washington,DC,20036,United States
4870,San Diego Mesa College,7250 Mesa College Drive,San Diego,CA,92111,United States
2415,Houston Community College,P.o. Box 667517,Houston,TX,77002,United States
3084,Florence-Darlington Technical College,2715 W. Lucas St.,Florence,SC,29501,United States
5143,Central State University,P.o.box 1004,Wilberforce,OH,45384,United States
4821,Island Institute,386 Main Street,Rockland,ME,04841,United States
462,MD Fellowships,,Arlington,VA,22230,United States
189,Smithsonian Institution,Office Of Sponsored Projects,Arlington,VA,22202,United States
212,Villanova University,800 Lancaster Avenue,Villanova,PA,19085,United States
9213,Embry-Riddle Aeronautical University,Office Of Sponsored Research Adm,Daytona Beach,FL,32114,United States
915,Optivision Incorporated,3450 Hillview Avenue,Palo Alto,CA,94304,United States
1990,St Joseph's University,5600 City Avenue,Philadelphia,PA,19131,United States
1220,Wittenberg University,Po Box 720,Springfield,OH,45501,United States
2066,SUNY College at Potsdam,Pierrepont Avenue,Potsdam,NY,13676,United States
2026,Louisiana State University Health Sciences Center,433 Bolivar St.,New Orleans,LA,70112,United States
11737,Allen Mark A,,West Lafayette,IN,47907,United States
12223,Level Playing Field Institute,2201 Broadway,Oakland,CA,94612,United States
8229,"BioTex, Inc.",8058 El Rio St.,Houston,TX,77054,United States
2134,Butler County Community College,901 South Haverhill Road,El Dorado,KS,67042,United States
1973,Cleveland State University,2121 Euclid Avenue,Cleveland,OH,44115,United States
5931,"J. Craig Venter Institute, Inc.",9704 Medical Center Drive,Rockville,MD,20850,United States
710,University of New Mexico Health Sciences Center,Msc09 5220,Albuquerque,NM,87131,United States
2059,Community College of Philadelphia,1700 Spring Garden,Philadelphia,PA,19130,United States
136,University of Chicago,5801 South Ellis Avenue,Chicago,IL,60637,United States
106,SUNY at Stony Brook,West 5510 Frk Mel Lib,Stony Brook,NY,11794,United States
312,Medical College of Wisconsin,8701 Watertown Plank Road,Milwaukee,WI,53226,United States
1930,Drew University,36 Madison Avenue,Madison,NJ,07940,United States
238,University of Louisville Research Foundation Inc,2301 S. Third St.,Louisville,KY,40208,United States
4371,"Microfabrica, Inc.",1103 West Isabel Street,Burbank,CA,91506,United States
7185,ITS Corporation,300 E Esplanade Drive,Oxnard,CA,93036,United States
2892,American Statistical Association,732 North Washington Street,Alexandria,VA,22314,United States
2658,University of Maryland Eastern Shore,Backbone Road,Princess Anne,MD,21853,United States
8590,Evigia Systems Inc.,3810 Varsity Drive,Ann Arbor,MI,48108,United States
308,Colorado Christian University,180 S. Garrison Street,Lakewood,CO,80226,United States
2973,AT&T,8403 Colesville Road,Silver Spring,MD,20910,United States
1328,Western Connecticut State University,181 White Street,Danbury,CT,06810,United States
2448,American Geological Institute,4220 King St,Alexandria,VA,22302,United States
234,University of North Texas,1155 Union Circle #305250,Denton,TX,76203,United States
7161,The College of Idaho,2112 Cleveland Blvd.,Caldwell,ID,83605,United States
9333,"Ithaka Harbors, Inc.",151 East 61st St.,New York,NY,10065,United States
9269,InfoSense Inc,8701 Mallard Creek Rd.,Charlotte,NC,28262,United States
2882,Divine Word College,South Center Avenue,Epworth,IA,52045,United States
50,Rensselaer Polytechnic Institute,110 8th St,Troy,NY,12180,United States
611,University of Northern Colorado,Office Of Sponsored Programs,Greeley,CO,80639,United States
3045,William Paterson University,300 Pompton Road,Wayne,NJ,07470,United States
1923,QUALITY EDUCATION FOR MINORITIES NETWORK,1818 N St Nw,Washington,DC,20036,United States
30,Pennsylvania State Univ University Park,110 Technology Center Building,University Park,PA,16802,United States
2024,Georgia Southwestern State University,800 Gsw St Univ Drive,Americus,GA,31709,United States
4831,Howard Community College,10901 Little Patuxent Pkw,Columbia,MD,21044,United States
365,Society For Developmental Biol,9650 Rockville Pike,Bethesda,MD,20814,United States
2132,Lansing Central School,264 Ridge Road,Lansing,NY,14882,United States
672,Southern College of Optometry,1245 Madison Avenue,Memphis,TN,38104,United States
3720,Emporia State University,1200 Commercial Street,Emporia,KS,66801,United States
5097,Internet Archive,Po Box 29244,San Francisco,CA,94129,United States
6750,"Teran, Joseph M",,Los Angeles,CA,90024,United States
4950,American Institute of Biological Sciences,1313 Dolley Madison Blvd.,Mclean,VA,22101,United States
407,University of Kansas Medical Center,"Msn 1039, 3901 Rainbow Boulevard",Kansas City,KS,66160,United States
323,NY Fellowships,,Arlington,NY,22230,United States
7796,"National Ecological Observatory Network, Inc",1685 38th St.,Boulder,CO,80301,United States
9570,"AcuDisplay, Inc.",2700 Rydin Rd,Richmond,CA,94804,United States
8999,Zettlemoyer Luke,,Cambridge,MA,02138,United States
5230,EDENSPACE SYSTEMS CORP,"210 N 21st Street, Suite B",Purcellville,VA,20132,United States
784,Augustana College,2001 S. Summit Ave.,Sioux Falls,SD,57197,United States
1211,Columbus State University,4225 University Avenue,Columbus,GA,31907,United States
1451,Texas State Technical College-Waco,3801 Campus Drive,Waco,TX,76705,United States
11539,SimCenter Enterprises,744 Mccallie Ave.,Chattanooga,TN,37403,United States
6502,Hawaii Science and Engineering Inc.,965 Hao Street,Honolulu,HI,96821,United States
403,University of Alabama Tuscaloosa,801 University Blvd.,Tuscaloosa,AL,35487,United States
10294,Rhode Island School of Design,2 College Street,Providence,RI,02903,United States
1198,Elizabethtown College,One Alpha Drive,Elizabethtown,PA,17022,United States
1995,California State University-Dominguez Hills,1000 East Victoria Street,Carson,CA,90747,United States
923,Macalester College,1600 Grand Avenue,Saint Paul,MN,55105,United States
3021,Association of American Geographers,1710 16th St. Nw,Washington,DC,20009,United States
109,William Marsh Rice University,6100 Main St,Houston,TX,77005,United States
3542,Shoreham Elementary School,School Street,Shoreham,VT,05770,United States
3023,Chesapeake Research Consortium Inc,645 Contees Wharf Road,Edgewater,MD,21037,United States
1307,Mount Holyoke College,50 College Street,South Hadley,MA,01075,United States
35,University of Delaware,210 Hullihen Hall,Newark,DE,19716,United States
558,Mount Sinai School of Medicine,1 Gustave L Levy Pl,New York,NY,10029,United States
9802,Iridescent,532 W 22nd St,Los Angeles,CA,90007,United States
3438,Mt. Hebron High School,9440 Rt. 99,Ellicott City,MD,21042,United States
2151,Kestrel Institute,3260 Hillview Avenue,Palo Alto,CA,94304,United States
531,University of Tennessee Chattanooga,615 Mccallie Avenue,Chattanooga,TN,37403,United States
2873,Columbia College,10th And Rogers,Columbia,MO,65201,United States
379,Society of General Physiologists,Po Box 257,Woods Hole,MA,02543,United States
395,Colgate University,13 Oak Drive,Hamilton,NY,13346,United States
1979,Monterey Bay Aquarium Research Institute,7700 Sandholdt Rd,Moss Landing,CA,95039,United States
2150,Mayo Clinic Rochester,200 First Street South West,Rochester,MN,55905,United States
7876,"CALPHAD, Inc.",140 Clark Road,Brookline,MA,02445,United States
393,University of Texas Medical Branch at Galveston,301 University Boulevard,Galveston,TX,77555,United States
12074,"Mental Canvas, LLC",61 Hartford Avenue,Madison,CT,06443,United States
659,University of Alaska Anchorage Campus,3211 Providence Drive,Anchorage,AK,99508,United States
331,Old Dominion University Research Foundation,4111 Monarch Way,Norfolk,VA,23508,United States
1251,Augsburg College,731 21st Avenue South,Minneapolis,MN,55454,United States
10890,California Institute of the Arts,24700 Mcbean Parkway,Valencia,CA,91355,United States
11114,"Torres, David D",,Houston,TX,77005,United States
1820,Blackboard Technology Group,401 Main Street,Amherst,MA,01002,United States
256,University of Nevada Las Vegas,4505 Maryland Parkway,Las Vegas,NV,89154,United States
3338,University of the Arts,320 South Broad Street,Philadelphia,PA,19102,United States
10300,"Lumicell Diagnostics, Inc",1000 Winter Street,Waltham,MA,02451,United States
4223,Pace University New York Campus,1 Pace Plaza,New York,NY,10038,United States
8389,Swedish Health Services,747 Broadway,Seattle,WA,98122,United States
315,United Tribes Technical College,3315 University Drive,Bismarck,ND,58504,United States
12263,Predictive Technologies Corporation,1475 N Scottsdale Rd,Scottsdale,AZ,85257,United States
653,Chabot-Las Positas Community College District,5020 Franklin Drive,Pleasanton,CA,94588,United States
8,Ohio State University Research Foundation -DO NOT USE,1960 Kenny Rd,Columbus,OH,43210,United States
7007,Kennesaw State University Research and Service Foundation,"1000 Chastain Rd., #0111",Kennesaw,GA,30144,United States
3580,Albany State University,504 College Drive,Albany,GA,31705,United States
399,Dynaflow Inc,10621-j Iron Bridge Road,Jessup,MD,20794,United States
4494,LeTourneau University,P O Box 7001,Longview,TX,75607,United States
326,James A. Rhodes State College,4240 Campus Drive,Lima,OH,45804,United States
1278,Grand Valley State University,1 Campus Drive,Allendale,MI,49401,United States
520,Wake Forest University,1834 Wake Forest Road,Winston-salem,NC,27106,United States
7877,Zhang Wei,,Troy,NY,12180,United States
108,East Carolina University,Office Of Sponsored Programs,Greenville,NC,27858,United States
3582,Chemical Heritage Foundation,315 Chestnut Street,Philadelphia,PA,19106,United States
1674,University Corporation For Atmospheric Res,1850 Table Mesa Dr,Boulder,CO,80305,United States
3077,Greenfield Community College,College Drive,Greenfield,MA,01301,United States
2281,"Macro-Vision Communications, LLC.",5490 Conestoga Court,Boulder,CO,80301,United States
4261,"Estevez, Ana Y",,Nashville,TN,37232,United States
6245,Air Force Research Laboratory/1FKPC,26 Electronic Pky,Rome,NY,13441,United States
2180,Atmospheric and Environmental Research Inc,131 Hartwell Avenue,Lexington,MA,02421,United States
9339,General Services Administration,Federal Proc Data Center,Arlington,VA,22203,United States
2034,IEEE Computer Society,1730 Massachusetts Ave Nw,Washington,DC,20036,United States
81,Northern Illinois University,301 Lowden Hall,De Kalb,IL,60115,United States
6038,"XMTT, Inc.",3 Kettle Pond Court,Potomac,MD,20854,United States
73,Federation of Amer Societies For Exper Biology,9650 Rockville Pike,Bethesda,MD,20814,United States
9416,Olivet Nazarene University,Office Of The President,Bourbonnais,IL,60914,United States
5323,BlueRISC Labs,28 Dana Street,Amherst,MA,01002,United States
12206,Teach For America,315 West 36th Street,New York,NY,10018,United States
2946,Washington College,300 Washington Ave,Chestertown,MD,21620,United States
10885,Analytical Software Inc.,8505 Broad Meadow Lane,Mckinney,TX,75071,United States
742,Southwestern Michigan College,Cherry Grove Road,Dowagiac,MI,49047,United States
1301,Maricopa County Community College District,2411 W 14th St,Tempe,AZ,85281,United States
12264,Biopico Systems,23 Pembroke,Irvine,CA,92618,United States
1172,Norfolk State University,700 Park Avenue,Norfolk,VA,23504,United States
1286,Saint Lawrence University,23 Romoda Drive,Canton,NY,13617,United States
2057,Illinois Eastern Community College District No. 529,233 E Chestnut Street,Olney,IL,62450,United States
4483,Southwest Center for Educational Excellence,"600 S. Ellis, Suite B",Webb City,MO,64870,United States
2609,Ohio State University,Office Of Sponsored Programs,Columbus,OH,43210,United States
562,New York University Medical Center,545 First Avenue,New York,NY,10016,United States
810,Institute for Manufacturing & Automation Research,3550 East Birch St,Brea,CA,92621,United States
2119,Department of Energy Oak Ridge Operations Office,Federal Building,Oak Ridge,TN,37830,United States
2885,Villa Maria College of Buffalo,240 Pine Ridge Road,Buffalo,NY,14225,United States
6639,Lymba Corporation,1701 N. Collins Blvd.,Richardson,TX,75080,United States
1735,"SI Diamond Technology, Inc",12100 Technology Boulevard,Austin,TX,78727,United States
2498,"Eltron Research, Inc.",4600 Nautilus Court South,Boulder,CO,80301,United States
10859,Museum of Fine Arts,465 Huntington Avenue,Boston,MA,02115,United States
113,College of William & Mary Virginia Institute of Marine Science,P.o. Box 1346,Gloucester Point,VA,23062,United States
11109,"GameDesk, Inc.",2332 Cotner Ave.,Los Angeles,CA,90064,United States
20,University of Cincinnati Main Campus,"University Hall, Suite 530",Cincinnati,OH,45221,United States
249,American Museum Natural History,Central Park West At 79th St,New York,NY,10024,United States
921,"Q-Chem, Inc.",317 Whipple Street,Pittsburgh,PA,15218,United States
5269,American Association of University Women,"1111 Sixteenth Street, Nw",Washington,DC,20036,United States
261,Maryville College,502 East Lamar Alexander Parkway,Maryville,TN,37804,United States
4432,University of Wisconsin-Parkside,900 Wood Road,Kenosha,WI,53141,United States
6478,"RENAISSANCE SERVICES, INC.","One South Limestone Street, Suit",Springfield,OH,45502,United States
12358,"Premitec, Inc.",1009 Capability Drive,Raleigh,NC,27606,United States
5758,Southwest Minnesota State University,1501 State Hwy 19,Marshall,MN,56258,United States
512,Evergreen State College,2700 Evergreen Parkway Nw,Olympia,WA,98505,United States
372,University of Colorado at Denver and Health Sciences Center,"Ms F428, Amc Bldg 500",Aurora,CO,80045,United States
39,University of Minnesota-Twin Cities,200 Oak St Se,Minneapolis,MN,55455,United States
441,Association For Women in Mathematics,11240 Waples Mill Rd,Fairfax,VA,22030,United States
327,SUNY at Binghamton,4400 Vestal Pkwy E,Binghamton,NY,13902,United States
2185,Marine Environmental Sciences Consortium,101 Bienville Blvd.,Dauphin Island,AL,36528,United States
3962,Society for Biomaterials,13355 Tenth Ave North,Minneapolis,MN,55441,United States
4015,Berkshire Community College,1350 West Street,Pittsfield,MA,01201,United States
811,Roberts Wesleyan College,2301 Westside Drive,Rochester,NY,14624,United States
3230,AGENTSHEETS INC,6560 Gunpark Dr Ste D,Boulder,CO,80301,United States
860,Centro de Investigaciones del Mar y La Atmosfera (CIMA),,Buenos,,,Argentina
1396,"Roswell Park Cancer Institute, Division of Health Research, Inc",Elm And Carlton Streets,Buffalo,NY,14263,United States
4298,National Imagery and Mapping Agency,4600 Sangamore Road,Bethesda,MD,20816,United States
6132,The Children's Hospital of Philadelphia,Research Administration,Philadelphia,PA,19104,United States
9325,Texas A&M University-Commerce,Office Of Research & Sponsored P,Commerce,TX,75429,United States
3126,Kings River Community College,995 North Reed,Reedley,CA,93654,United States
8221,California State University Channel Islands,One University Drive,Camarillo,CA,93012,United States
889,U.S. Civilian Research and Development Foundation,1776 Wilson Boulevard,Arlington,VA,22209,United States
1720,Milwaukee School of Engineering,1025 N. Broadway,Milwaukee,WI,53202,United States
5315,Carnegie Speech Company,"437 Grant Street, Suite 918",Pittsburgh,PA,15219,United States
5928,West Virginia High Technology Consortium Foundation,1000 Technology Drive,Fairmont,WV,26554,United States
4701,"Perreault, Eric J",,Arlington,VA,22230,United States
1694,Arizona Science Center,600 E. Washington Street,Phoenix,AZ,85004,United States
1753,"ULTRAMET, INC.",12173 Montague Street,Pacoima,CA,91331,United States
1196,Sacred Heart University,5151 Park Avenue,Fairfield,CT,06825,United States
184,University of Nevada Reno,1664 North Virginia Street,Reno,NV,89557,United States
1916,National Wildlife Federation,11100 Wildlife Center Dr.,Reston,VA,20190,United States
3699,Saddleback College,28000 Marguerite Parkway,Mission Viejo,CA,92692,United States
6574,"Sarissa, Inc",P.o. Box 10325,Rockville,MD,20849,United States
1491,JJ Pearce High School,1600 N Coit Road,Richardson,TX,75080,United States
282,Lourdes College,6832 Convent Boulevard,Sylvania,OH,43560,United States
5298,Mitre Corporation Virginia,7515 Colshire Drive,Mclean,VA,22102,United States
4097,Gorbel Incorporated,600 Fishers Run,Fishers,NY,14453,United States
4815,"CSR, Incorporated",2107 Wilson Blvd,Arlington,VA,22201,United States
941,"Teachers College, Columbia University",525 West 120th Street,New York,NY,10027,United States
4060,Sonoma County Jr College District,1501 Mendocino Ave,Santa Rosa,CA,95401,United States
7650,Zenwa Inc,25 Hampshire Street,Sudbury,MA,01776,United States
576,Brevard Community College,1519 Clearlake Road,Cocoa,FL,32922,United States
658,Keuka College,Keuka College,Keuka Park,NY,14478,United States
3088,Saint Francis University,169 Lakeview Drive,Loretto,PA,15940,United States
10081,Smith Steven P,,Tucson,AZ,85721,United States
8448,Association of Public and Land-Grant Universities,1307 New York Ave Nw,Washington,DC,20005,United States
3303,Montclair State University,1 Normal Avenue,Montclair,NJ,07043,United States
2303,"IC TECH, INC.",4295 Okemos Rd Ste 100,Okemos,MI,48864,United States
597,University of Connecticut Health Center,263 Farmington Ave.,Farmington,CT,06030,United States
417,University of Northern Iowa,Office Of Sponsored Programs,Cedar Falls,IA,50614,United States
2058,Sullivan County Community College,P.o. Box 4002,Loch Sheldrake,NY,12759,United States
1706,Radford University,Box 6926,Radford,VA,24142,United States
1865,"T/J Technologies, Inc",3850 Research Park Drive,Ann Arbor,MI,48108,United States
3848,"Boughman, Janette W",,College Park,MD,20742,United States
894,B & C ENGINEERING ASSOCIATES,411 Wolf Ledges Pkwy,Akron,OH,44311,United States
364,National Indian Telecommunication Institute,1205 Colle Luna,Santa Fe,NM,87501,United States
855,"Cal Poly Pomona Foundation, Inc.",3801 West Temple,Pomona,CA,91768,United States
3147,"VCOM3D, INC.",11474 Corporate Blvd,Orlando,FL,32817,United States
301,"The University Corporation, Northridge",18111 Nordhoff Street,Northridge,CA,91330,United States
100,University of Hawaii,"2440 Campus Road, Box 368",Honolulu,HI,96822,United States
4014,Gadsden State Community College,1001 George Wallace Drive,Gadsden,AL,35903,United States
2997,Salisbury University,1101 Camden Avenue,Salisbury,MD,21801,United States
112,Cornell University,373 Pine Tree Road,Ithaca,NY,14850,United States
4915,Lumenware LLC,4241 Watertrace Drive,Lexington,KY,40515,United States
3605,ALLIED TECHNOLOGY GROUP INC,1803 Research Blvd,Rockville,MD,20850,United States
565,University of Wisconsin-Whitewater,800 West Main Street,Whitewater,WI,53190,United States
361,Center For Cultural&Tech Interchg East&West,1601 East-west Road,Honolulu,HI,96848,United States
3905,Central Intelligence Agency,,Washington,DC,20233,United States
11290,Liu Jia,,New York,NY,10017,United States
503,Planetary Science Institute,1700 E. Ft. Lowell,Tucson,AZ,85719,United States
644,United States Military Academy,646 Swift Road,West Point,NY,10996,United States
27,Colorado State University,601 S Howes St,Fort Collins,CO,80523,United States
366,Towson University,8000 York Road,Towson,MD,21252,United States
4507,Doane College,1014 Boswell Avenue,Crete,NE,68333,United States
3083,Seattle Pacific University,3307 3rd Avenue West,Seattle,WA,98119,United States
2642,Information Renassaince,"425 6th. Ave., Suite 1880",Pittsburgh,PA,15219,United States
3937,Hawaii Department of Education,P.o. Box 2360,Honolulu,HI,96813,United States
4751,MicroFab Technologies Inc,1104 Summit Ave Ste 110,Plano,TX,75074,United States
8607,SUNY College of Optometry,33 West 42nd St.,New York,NY,10036,United States
7828,Smith Adam R,,Seattle,WA,98105,United States
493,New York Botanical Garden,200th Street & Kazimiroff Blvd,Bronx,NY,10458,United States
74,Indiana University,509 E 3rd St,Bloomington,IN,47401,United States
297,University of New Hampshire,"Service Bldg., Room 111",Durham,NH,03824,United States
288,Defiance College,701 N Clinton,Defiance,OH,43512,United States
2385,University of Hartford,200 Bloomfield Avenue,West Hartford,CT,06117,United States
12342,Moai Technologies L.L.C.,6901 East Fish Lake Rd Suite 190,Maple Grove,MN,55369,United States
149,Oklahoma State University,101 Whitehurst Hall,Stillwater,OK,74078,United States
1344,California State University-Fullerton,"800 N State College Blvd, Mh-112",Fullerton,CA,92834,United States
10238,Triangle Engineering,38 Credit Court,White River Junction,VT,05001,United States
1205,Presbyterian College,South Broad Street,Clinton,SC,29325,United States
580,University of West Georgia,1601 Maple,Carrollton,GA,30118,United States
10390,"Value-Driven Design Institute, Inc.",Po Box 247,Urbana,IL,61803,United States
1958,Albuquerque Technical Vocational Institute,525 Buena Vista Se,Albuquerque,NM,87106,United States
4586,"Demaine, Erik D",,"Waterloo, Ontario, Canada",,,Canada
9512,MetaTenna,469 Wharton Blvd.,Exton,PA,19341,United States
2296,"NOMADICS, INC",1024 S Innovation Way,Stillwater,OK,74074,United States
641,"Ichauway, Inc.",3988 Jones Center Drive,Newton,GA,39870,United States
3591,Delta Research and Educational Foundation,"1703 New Hampshire Avenue, Nw",Washington,DC,20009,United States
12086,Fauxsee Innovations LLC,4030 Columbia Rd 5,Magnolia,AR,71753,United States
1729,Ramapo College of New Jersey,505 Ramapo Valley Road,Mahwah,NJ,07430,United States
2176,BBN Systems & Technologies Corporation,33 Moulton Street,Cambridge,MA,02138,United States
65,Washington University,"One Brookings Drive, Campus Box",Saint Louis,MO,63130,United States
3940,Brownsville Independent School District,1900 E. Price Road,Brownsville,TX,78521,United States
2925,"Hodari, Apriel K",,College Park,MD,20742,United States
186,University of California-San Diego Scripps Inst of Oceanography,8602 La Jolla Shores Dr,La Jolla,CA,92093,United States
254,Portland State University,1600 Sw 4th Ave,Portland,OR,97207,United States
4942,Rocky Mountain Institute,2317 Snowmass Creek Road,Snowmass,CO,81654,United States
497,University of the Sciences in Philadelphia,600 South 43rd Street,Philadelphia,PA,19104,United States
1452,Los Rios Community College District,1919 Spanos Court,Sacramento,CA,95825,United States
5237,NANOMATERIALS AND NANOFABRICATION LABORATORIES,P.o. Box 2168,Fayetteville,AR,72702,United States
382,"The University of Tennessee, Memphis - The Health Science Center",62 S Dunlap St,Memphis,TN,38163,United States
2285,Elon University,2309 Campus Box,Elon,NC,27244,United States
7120,"Extemporal Wireless, Inc.",3902 Sw 97th Dr,Gainesville,FL,32608,United States
1988,Rowan University,Office Of Sponsored Programs,Glassboro,NJ,08028,United States
8838,Northwest Association for Biomedical Research,100 W Harrison,Seattle,WA,98119,United States
4171,"Big Horn Valve, Inc.","1664 Terra Ave, #5",Sheridan,WY,82801,United States
2412,Westminster College,319 South Market Street,New Wilmington,PA,16172,United States
905,Missouri State University,901 South National,Springfield,MO,65897,United States
2221,Museum of Science,Science Park,Boston,MA,02114,United States
8225,"Science Approach, LLC",1611 N. Wilmot Road,Tucson,AZ,85712,United States
9050,Christopher Newport University,1 Avenue Of The Arts,Newport News,VA,23606,United States
2081,New York Hall of Science,47-01 111th Street,Corona,NY,11368,United States
4246,Online Computer Library Center,6565 Frantz Road,Dublin,OH,43017,United States
162,SUNY at Albany,1400 Washington Ave,Albany,NY,12222,United States
1395,Seattle University,901 12th Ave,Seattle,WA,98122,United States
3704,Bristol Community College,777 Elsbree Street,Fall River,MA,02720,United States
12053,Whova,4428 Philbrook Sq,San Diego,CA,92130,United States
10267,"Farus, LLC",1240 Keystone Way,Vista,CA,92081,United States
518,Telemedicine Research Center,7276 Sw Beaverton-hillsdale Hwy,Portland,OR,97225,United States
7021,Foundation for Blood Research,P.o. Box 190,Scarborough,ME,04070,United States
4094,"Spectrum San Diego, Inc.",15950 Bernardo Center Dr. Ste,San Diego,CA,92127,United States
68,Carnegie-Mellon University,5000 Forbes Avenue,Pittsburgh,PA,15213,United States
2881,"University of California, Office of the President, Oakland",1111 Franklin Street,Oakland,CA,94607,United States
8438,Pearl River Community College,101 Highway 11 North,Poplarville,MS,39470,United States
4300,Chicago Zoological Society,3300 Golf Road,Brookfield,IL,60513,United States
4251,"Lawrence, Jason S",,New York,NY,10017,United States
3979,"Friedman, John T",,Arlington,VA,22230,United States
4801,Tarleton State University,Po Box T-1179,Stephenville,TX,76402,United States
904,Mission Research Corporation (MRC),735 State Street,Santa Barbara,CA,93101,United States
7268,Wakin Michael B,,Houston,TX,77005,United States
6107,University of Tennessee Institute of Agriculture,2621 Morgan Circle,Knoxville,TN,37996,United States
322,CA Fellowships,,Arlington,CA,22230,United States
1169,SUNY College at Fredonia,Central Avenue,Fredonia,NY,14063,United States
8862,PolarOnyx Inc.,"562 Weddell Drive, Suite 8",Sunnyvale,CA,94089,United States
388,Joan and Sanford I. Weill Medical College of Cornell University,1300 York Avenue,New York,NY,10065,United States
2996,Organization For Economic Cooperation & Development,"2, Rue Andre Pascal",Paris,,,France
5170,"DING, YUJIE J.","3210 Bay Hill Drive, North",Center Valley,PA,18034,United States
5142,Social Science Research Council,One Pierrepont Plaza,Brooklyn,NY,11201,United States
148,Fordham University,441 E.fordham Road,Bronx,NY,10458,United States
3297,KAJ LLC,7217 Coyote Trail,Longmont,CO,80503,United States
3059,Chapman University,One University Drive,Orange,CA,92866,United States
713,Research Foundation of the City University of New York,230 West 41st Street,New York,NY,10019,United States
499,University of West Florida,11000 University Pkwy,Pensacola,FL,32514,United States
1350,"Community College of Baltimore County, Essex",7201 Rossville Boulevard,Essex,MD,21237,United States
1297,Saint Bonaventure University,Po Box 2500,St. Bonaventure,NY,14778,United States
6503,AT&T BELL LABORATORIES,2701 Lucent Lane,Lisle,IL,60532,United States
538,National Opinion Research Center,1155 E. 60th Street,Chicago,IL,60637,United States
4349,NVE CORPORATION,11409 Valley View Rd,Eden Prairie,MN,55344,United States
255,Indian River Community College,3209 Virginia Avenue,Fort Pierce,FL,34981,United States
4430,Ecological Society of America,1990 M Street Nw,Washington,DC,20036,United States
2014,University of Wisconsin-La Crosse,1725 State Street,La Crosse,WI,54601,United States
291,University of Louisiana at Lafayette,104 University Circle,Lafayette,LA,70503,United States
5830,MIXSIG LABS INC,9026 Roseton Ln,Charlotte,NC,28277,United States
7528,Hartford Hospital,80 Seymour,Hartford,CT,06102,United States
244,Regional Research Laboratory,,"Bhopal, India",,,India
542,University of Maryland at Baltimore,"620 W Lexington St, 4th Floor",Baltimore,MD,21201,United States
586,Yeshiva University,500 West 185th Street,New York,NY,10033,United States
8829,"Smith, Jennifer L",,Woodside,NY,11377,United States
57,DePauw University,313 South Locust Street,Greencastle,IN,46135,United States
6106,Air Force Research Laboratory/MLF,"2230 Tenth Street, Bldg. 655",Wright Patterson Afb,OH,45433,United States
1179,Sinclair Community College,444 West Third Street,Dayton,OH,45402,United States
3189,"Luna Innovations, Incorporated",1 Riverside Circle,Roanoke,VA,24016,United States
220,George Washington University,2121 Eye Street Nw,Washington,DC,20052,United States
9513,"Plymouth Grating Laboratory, Inc.",5 Commerce Way,Plymouth,MA,02360,United States
830,Telenix Corporation,3982 White Rose Way0,Ellicott City,MD,21042,United States
424,University of North Carolina at Asheville,One University Heights,Asheville,NC,28804,United States
7009,Northwestern University at Chicago,"750 N. Lake Shore Drive,",Chicago,IL,60611,United States
3105,City College of San Francisco,33 Gough Street,San Francisco,CA,94103,United States
1691,Institute for Research on Learning,66 Willow Place,Menlo Park,CA,94025,United States
304,The Enterprise Computing Institute,293 Boston Post Road West,Marlborough,MA,01752,United States
521,University of California-San Francisco,1855 Folsom St Ste 425,San Francisco,CA,94143,United States
4350,KAZAK COMPOSITES INC,10 F Gill Street,Woburn,MA,01801,United States
2056,Laredo Community College,West End Washington St,Laredo,TX,78040,United States
117,University of Michigan Ann Arbor,3003 South State St.,Ann Arbor,MI,48109,United States
243,Santa Fe Institute,1399 Hyde Park Road,Santa Fe,NM,87501,United States
1242,Jacksonville State University,700 North Pelham Road,Jacksonville,AL,36265,United States
4154,"Iguana Robotics, Inc.",7049 E Tanque Verde,Tucson,AZ,85715,United States
2213,Webb Institute,Crescent Beach Road,Glen Cove,NY,11542,United States
6961,Stilman Michael,,Pittsburgh,PA,15213,United States
2589,"ELECTROCHEM, INC.",400 W Cummings Park Ste 5600,Woburn,MA,01801,United States
780,West Chester University of Pennsylvania,South High Street,West Chester,PA,19383,United States
4866,Association of American Medical Colleges,"2450 N Street, Nw",Washington,DC,20037,United States
6657,"ImageCat, Inc.",400 Oceangate,Long Beach,CA,90802,United States
38,University of Wisconsin-Madison,21 North Park Street,Madison,WI,53715,United States
2247,Computer Museum,300 Congress Street,Boston,MA,02210,United States
8912,app2you,Po Box 928014,San Diego,CA,92192,United States
2044,Educational Broadcasting Corporation,825 Eighth Ave,New York,NY,10019,United States
10739,Kim Min J,,Berkeley,CA,94710,United States
7390,Securics Incorporated,1867 Austin Bluffs Parkway,Colorado Springs,CO,80918,United States
9346,University of Texas at Brownsville,One West University Blvd,Brownsville,TX,78520,United States
3209,NEI CORPORATION,201 Circle Drive North,Piscataway,NJ,08854,United States
284,Fremont-Newark Community College District,43600 Mission Blvd,Fremont,CA,94539,United States
2054,Ruidoso Municipal School District,200 Horton Circle,Ruidoso,NM,88345,United States
4809,American Indian Higher Education Consortium,121 Oronoco Street,Alexandria,VA,22314,United States
4842,Suffolk Community College,533 College Road,Selden,NY,11784,United States
1364,Southern Techological Council,P.o. Box 12293,Research Triangle Park,NC,27709,United States
2210,MI Fellowships,,Arlington,VA,22230,United States
9387,"Mesa Photonics, LLC",1550 Pacheco St,Santa Fe,NM,87505,United States
8149,Berenson Dmitry,,Pittsburgh,PA,15213,United States
567,University of South Alabama,307 University Boulevard,Mobile,AL,36688,United States
1723,Five Colleges Inc,97 Spring St,Amherst,MA,01002,United States
356,Howard University,2400 Sixth Street N W,Washington,DC,20059,United States
115,Yale University,P.o. Box 208047,New Haven,CT,06520,United States
6475,Heartland Community College,1500 W. Raab Road,Normal,IL,61761,United States
3741,Onyx Consulting Inc,"1300 El Paseo Suite G, Pmb 236",Las Cruces,NM,88001,United States
4825,Survivors of the Shoah Visual History Foundation,100 Universal City Plaza,Universal City,CA,91608,United States
185,University of Colorado at Denver,"F428, Amc Bldg 500",Aurora,CO,80045,United States
547,Robert Wood Johnson Medical School,675 Hoes Lane,Piscataway,NJ,08854,United States
12211,InnovBot LLC,"Zahn Center, Steinman Hall, T139",New York,NY,10031,United States
7140,TeraVision Inc.,5516 E. South Wilshire Dr.,Tucson,AZ,85711,United States
280,University of Richmond,202 Maryland Hall,Richmond,VA,23173,United States
1703,Oak Ridge National Laboratory,1 Bethel Valley Road,Oak Ridge,TN,37831,United States
7910,Advanced Medical Electronics Corp.,6901 East Fish Lake Road,Maple Grove,MN,55369,United States
248,Sam Houston State University,P O Box 2392,Huntsville,TX,77341,United States
3067,Paul Smith's College of Arts and Sciences,Paul Smith's College Route 86 &,Paul Smith's,NY,12970,United States
813,Saint Thomas University,16400 N.w.32nd Avenue,Miami,FL,33054,United States
5211,"Bionic Technologies, L.L.C.",391 Chipeta Way Suite G,Salt Lake City,UT,84108,United States
526,Juniata College,1700 Moore Street,Huntingdon,PA,16652,United States
674,Institute of American Indian Arts,83 Avan Nu Po Road,Santa Fe,NM,87508,United States
808,University of San Francisco,Contracts And Grants,San Francisco,CA,94117,United States
396,American Physical Society,One Physics Ellipse,College Park,MD,20740,United States
40,University of Oklahoma Norman Campus,201 David L. Boren Blvd.,Norman,OK,73019,United States
2011,Sloan Kettering Institute For Cancer Research,1275 York Avenue,New York,NY,10065,United States
4907,KITWARE INC,28 Corporate Dr # 204,Clifton Park,NY,12065,United States
370,Meharry Medical College,1005 D. B. Todd Blvd,Nashville,TN,37208,United States
6561,Aegean Conferences,36 Haymarket Ln,Bryn Mawr,PA,19010,United States
89,University of Colorado at Boulder,"3100 Marine Street, Room 481",Boulder,CO,80309,United States
88,Princeton University,Off. Of Research & Proj. Admin.,Princeton,NJ,08540,United States
6003,"NEES Consortium, Inc.",400 F Street,Davis,CA,95616,United States
11708,OpenAirBoston.net,1 City Hall Sq Ste 703,Boston,MA,02201,United States
4383,ADEC/AgSAT,C218 Aninal Science,Lincoln,NE,68505,United States
2410,Mount San Antonio College,1100 North Grand,Walnut,CA,91789,United States
216,Lehigh University,Alumni Building 27,Bethlehem,PA,18015,United States
209,Florida Agricultural and Mechanical University,1500 Wahnish Way,Tallahassee,FL,32307,United States
839,San Diego Supercomputer Center,Po Box 85608,San Diego,CA,92186,United States
60,Auburn University,310 Samford Hall,Auburn,AL,36849,United States
11393,Instream Media LLC,45 Line Road,Holmdel,NJ,07733,United States
360,Health Research Incorporated/New York State Department of Health,"150 Broadway, Suite 560",Menands,NY,12204,United States
1428,Prince George's Community College,301 Largo Rd,Largo,MD,20774,United States
460,NJ Fellowships,,Arlington,VA,22230,United States
8831,Baystate Medical Center,759 Chestnut Street,Springfield,MA,01199,United States
1455,Bellevue Community College,3000 Landerholm Circle Se,Bellevue,WA,98007,United States
3079,SUNY College at Oneonta,Research Foundation Of Suny,Oneonta,NY,13820,United States
2045,Lafayette College,High Street,Easton,PA,18042,United States
8338,Meridium Inc.,10 South Jefferson Street,Roanoke,VA,24011,United States
1347,Ursinus College,Po Box 1000,Collegeville,PA,19426,United States
354,Stark State College of Technology,6200 Frank Avenue N W,North Canton,OH,44720,United States
752,Utah State University Research Foundation,1695 North Research Park Way,Logan,UT,84341,United States
5940,Allan Hancock College,800 South College Drive,Santa Maria,CA,93454,United States
267,International Union of Materials Research Societies,9800 Mcknight Road,Pittsburgh,PA,15237,United States
11390,Wang Electro-Opto Corporation,805 Franklin Ct Se,Marietta,GA,30067,United States
6904,Patel Shwetak,,Atlanta,GA,30322,United States
4635,Virginia State University,1 Hayden Drive,Petersburg,VA,23806,United States
5930,Polytechnic University of Puerto Rico,Po Box 192017,San Juan,PR,00919,United States
172,University of North Carolina at Chapel Hill,104 Airport Dr Ste 2200,Chapel Hill,NC,27599,United States
6092,Intematix Corporation,351 Rheem Blvd.,Moraga,CA,94556,United States
4812,"Window To The World Communications, Inc. WTTW 11",5400 N St Louis Avenue,Chicago,IL,60625,United States
7174,Raytheon BBN Technologies Corp.,10 Moulton Street,Cambridge,MA,02138,United States
9985,Brown Donald L,,College Station,TX,77840,United States
190,University of Texas at El Paso,Admin Bldg Rm 209,Elpaso,TX,79968,United States
5443,Consortium of Universities for the Advancement of Hydrologic Sci,2000 Florida Ave,Washington,DC,20009,United States
1798,CFD RESEARCH CORPORATION,215 Wynn Dr Nw Fl 5,Huntsville,AL,35805,United States
1827,AugmenTech Inc,5001 Baum Boulevard,Pittsburgh,PA,15213,United States
1409,National Coalition of Girls' Schools,228 Main Street,Concord,MA,01742,United States
299,University of New Haven,300 Boston Post Road,West Haven,CT,06516,United States
3027,National Alliance of State Science and Math Coalitions,Suite 200,Arlington,VA,22201,United States
3130,Shodor Education Foundation Inc,807 E Main Street,Durham,NC,27701,United States
6664,Chaminade University of Honolulu,3140 Waialae Avenue,Honolulu,HI,96816,United States
2419,Edinboro University of Pennsylvania,219 Meadville Street,Edinboro,PA,16444,United States
351,Cold Spring Harbor Laboratory,1 Bungtown Road,Cold Spring Harbor,NY,11724,United States
3335,Institute for the Study of Learning and Expertise,2164 Staunton Court,Palo Alto,CA,94306,United States
9797,Spaulding Rehabilitation Hospital,300 First Street,Charlestown,MA,02129,United States
4514,American University of Beirut,3 Dag Hammarskjold Plaza,New York,NY,10017,United States
4938,Kestrel Technology LLC,3260 Hillview Avenue,Palo Alto,CA,94304,United States
1365,International Telecomputing Consortium,1250 24th Street,Washington,DC,20037,United States
464,OH Fellowships,,Arlington,OH,22230,United States
796,Earth and Space Research,2101 Fourth Ave Suite 1310,Seattle,WA,98121,United States
8910,Animated Speech Corporation,851 Burlway Road,Burlingame,CA,94010,United States
6482,Wilson College,1015 Philadelphia Avenue,Chambersburg,PA,17201,United States
1937,University of Colorado at Colorado Springs,"1420, Austin Bluffs Parkway",Colorado Springs,CO,80918,United States
1227,Ocean County College,College Drive,Toms River,NJ,08754,United States
1271,Bunker Hill Community College,250 New Rutherford Avenue,Boston,MA,02129,United States
2117,Massillon City Schools,"207 Oak Avenue, Se",Massillon,OH,44646,United States
438,Lawrence Berkeley Laboratory,Sponsored Projects Office,Berkeley,CA,94704,United States
3061,Pasadena City College,1570 E Colorado Blvd,Pasadena,CA,91106,United States
98,American Association For Advancement Science,"1200 New York Avenue, N.w.",Washington,DC,20005,United States
342,Washington and Lee University,204 W. Washington St.,Lexington,VA,24450,United States
43,University of Maine,5717 Corbett Hall,Orono,ME,04469,United States
24,University of Southern California,University Park,Los Angeles,CA,90089,United States
4218,Sussex County School Board,P.o. Box 1368,Sussex,VA,23884,United States
4036,Shippensburg University of Pennsylvania,1871 Old Main Drive,Shippensburg,PA,17257,United States
6772,Battelle Memorial Institute,Battelle Blvd,Richland,WA,99354,United States
203,E. Heller and Company,"1311 Harbor Bay, Suite 1000",Alameda,CA,94502,United States
2079,NASA,Headquarters,Washington,DC,20036,United States
642,SUNY College at Buffalo,1300 Elmwood Avenue,Buffalo,NY,14222,United States
4742,"Martinez, Maria J",,Arlington,VA,22230,United States
858,Vision Technology Inc,1808 Forxborough Ct,Champaign,IL,61822,United States
2031,Accreditation Board for Engineering and Technology Inc (ABET),111 Market Place Suite 1050,Baltimore,MD,21202,United States
3991,Wagner College,One Campus Road,Staten Island,NY,10301,United States
2939,Texas Woman's University,Box 425619 T W U Station,Denton,TX,76204,United States
324,TX Fellowships,,Arlington,TX,22230,United States
135,Amherst College,Comptrollers Office,Amherst,MA,01002,United States
1695,WGBH Educational Foundation,One Guest Street,Boston,MA,02135,United States
79,University of Alabama at Birmingham,Ab 1170,Birmingham,AL,35294,United States
2328,American Academy of Arts and Sciences (AAAS),136 Irving Street,Cambridge,MA,02138,United States
12072,Adrenaline Mobility,60 Hazelwood Drive,Champaign,IL,61820,United States
290,Bradley University,1501 West Bradley Avenue,Peoria,IL,61625,United States
2286,Adelphi University,South Avenue,Garden City,NY,11530,United States
8317,"EndoMetric, LLC",3124 Greenwood Rd,Ames,IA,50014,United States
12165,Alelo TLT LLC,12910 Culver Blvd.,Los Angeles,CA,90066,United States
474,New York Medical College,40 Sunshine Cottage Road,Valhalla,NY,10595,United States
3012,Leech Lake Tribal College,Po Box 180,Cass Lake,MN,56633,United States
3997,National Science Teachers Assoc,1840 Wilson Boulevard,Arlington,VA,22201,United States
36,SRI International,333 Ravenswood Ave,Menlo Park,CA,94025,United States
4707,"Callaway, Duncan S",,Ithaca,NY,14853,United States
666,Indiana University of Pennsylvania,"Stright Hall, Room 129",Indiana,PA,15705,United States
2229,Rhode Island Zoological Society,Elmwood Ave,Providence,RI,02905,United States
8172,Red Hill Studios,"1017 E Street, Ste. C",San Rafael,CA,94901,United States
2112,Los Angeles Unified School District,333 S. Beaudry Ave,Los Angeles,CA,90017,United States
8400,Arizona Geological Survey,"416 W. Congress St, #100",Tucson,AZ,85701,United States
840,University of Wisconsin-Oshkosh,800 Algoma Boulevard,Oshkosh,WI,54901,United States
8399,"NORTHERN KENTUCKY UNIVERSITY RESEARCH FOUNDATION, INC.","Nunn Dr, Ac 616",Highland Heights,KY,41099,United States
8497,Taylor John R,,La Jolla,CA,92093,United States
610,James Madison University,Msc 5728,Harrisonburg,VA,22807,United States
9335,New York Botanical Garden,2900 Southern Blvd,Bronx,NY,10458,United States
2003,Boyce Thompson Institute Plant Research,1 Tower Road,Ithaca,NY,14853,United States
274,Midwest Research Institute,425 Volker Boulevard,Kansas City,MO,64110,United States
819,California State L A University Auxiliary Services Inc.,5151 State University Drive,Los Angeles,CA,90032,United States
12082,Wildsense,7120 Woody Creek Ln,Lincoln,NE,68516,United States
2141,Southeastern University,501 Eye Street S W,Washington,DC,20024,United States
2891,Cheboygan Otsego Presque Isle Intermediate School District,6065 Learning Lane,Indian River,MI,49749,United States
333,Wesleyan University,237 High St,Middletown,CT,06459,United States
12385,Vehicle Data Science Corporation,324 Lakeview Way,Emerald Hills,CA,94062,United States
3086,Central Connecticut State University,1615 Stanley Street,New Britain,CT,06050,United States
9211,Active Spectrum Inc.,110 Glenn Way #15,San Carlos,CA,94070,United States
856,National Institute of Statistical Sciences,Po Box 14006,Research Triangle Pk,NC,27709,United States
9300,Astraion LLC,1500 Stony Brook Road,Stony Brook,NY,11794,United States
8432,Laramie County Community College,1400 East College Drive,Cheyenne,WY,82007,United States
4355,"Vivisimo, Inc.",1710 Murray Avenue,Pittsburgh,PA,15217,United States
4239,"Kirby, Michael X",,Fillmore,CA,93015,United States
9381,"nanoGriptech, Inc.","91 43rd St., Suite 200",Pittsburgh,PA,15201,United States
5278,Air Force Office of Scientific Research (AFOSR),801 North Randolph Street,Arlington,VA,22203,United States
4977,Optoelectronics Industry Development Association,1220 Connecticut Ave Nw,Washington,DC,20036,United States
2570,NEWMAN TECHNOLOGIES,126 E Ridge Rd,Norman,OK,73069,United States
2122,Passaic County Community College,College Boulevard,Paterson,NJ,07505,United States
9489,AMPL Optimization LLC,900 Sierra Place Se,Albuquerque,NM,87108,United States
6421,"Sisu Chemical, LLC","840 Main Campus Drive,suite 3580",Raleigh,NC,27606,United States
8599,Adaptive Communications Research Inc.,12581 Carmel Canyon Road,San Diego,CA,92130,United States
3910,Mid-Continent Research for Education and Learning,4601 Dtc Boulevard,Denver,CO,80237,United States
568,Delaware State University,1200 N. Dupont Highway,Dover,DE,19901,United States
192,Mississippi State University,Po Box 6156,Mississippi State,MS,39762,United States
1998,Chicago Academy of Sciences,2430 N. Cannon Drive,Chicago,IL,60614,United States
260,University of Miami Rosenstiel School of Marine&Atmospheric Sci,4600 Rickenbacker Cswy,Key Biscayne,FL,33149,United States
6524,"Hedrick, Tyson L",,Chapel Hill,NC,27516,United States
7562,Research Corporation of the Univ of Hawaii,2800 Woodlawn Dr.,Honolulu,HI,96822,United States
3155,Geo Choice Inc.,7817 235th Place Ne,Redmond,WA,98053,United States
2055,Siskiyou Union High School District,624 Everitt Memorial Highway,Mount Shasta,CA,96067,United States
1407,Biological Sciences Curriculum Study,5415 Mark Dabling Boulevard,Colorado Springs,CO,80918,United States
9040,International Dark Sky Association,3223 N 1st Ave,Tucson,AZ,85719,United States
1722,American Mathematical Association of Two-Year College,Southwest Tennessee Cc,Memphis,TN,38134,United States
821,Wright State University,3640 Colonel Glenn Highway,Dayton,OH,45435,United States
9038,University of Nebraska-Lincoln,"2200 Vine St, 151 Whittier",Lincoln,NE,68583,United States
10844,G84 Consulting,1116 20th Street South,Birmingham,AL,35205,United States
9344,University of Puerto Rico,Central Administration,San Juan,PR,00931,United States
822,International Centre for Antarctic Information & Research,14 Orchard Rd Po Box 14-199,Christchurch,,,New Zealand
1241,CUNY Borough of Manhattan Community College,199 Chambers Street,New York,NY,10007,United States
571,University of San Diego,5998 Alcala Park M210,San Diego,CA,92110,United States
7990,"Ekso Bionics, Inc.",1414 Harbour Way South,Richmond,CA,94804,United States
1329,Millikin University,1184 West Main Street,Decatur,IL,62522,United States
6356,The Protein Society,9650 Rockville Pike,Bethesda,MD,20814,United States
2437,Northeast Radio Observatory Corp,77 Massachusetts Ave,Cambridge,MA,02139,United States
8840,ACQUISITION SERVICES DIRECTORATE NATIONAL BUSINESS CENTER,1951 Constitution Ave Nw,Washington,DC,20245,United States
2425,Suffolk University,8 Ashburton Place,Boston,MA,02108,United States
463,AZ Fellowships,4201 Wilson Bould.,Arlington,VA,22203,United States
8583,"Wasatch Microfluidics, LLC",825 N 300 W #c325,Salt Lake City,UT,84103,United States
8925,American Association of Variable Star Observrs,49 Bay State Road,Cambridge,MA,02138,United States
4304,Institute for Systems Biology,401 Terry Avenue North,Seattle,WA,98109,United States
11012,Los Angeles City College,855 N. Vermont Avenue,Los Angeles,CA,90029,United States
9295,"Metal Oxygen Separation Technologies, Inc.",3 Huron Drive,Natick,MA,01760,United States
156,Missouri University of Science and Technology,300 W 12th Street,Rolla,MO,65409,United States
3028,Alma College,614 West Superior,Alma,MI,48801,United States
3299,Long Island University Southampton,Montauk Highway,Southampton,NY,11968,United States
2102,Jacksboro Independent School District,812 West Belknap,Jacksboro,TX,76458,United States
4713,"Wall, Dennis P",,Arlington,VA,22230,United States
140,University of Utah,75 S 2000 E,Salt Lake City,UT,84112,United States
1201,Northern Kentucky University,"Nunn Drive, Ac 616",Highland Heights,KY,41099,United States
7840,Education Connection,355 Goshen Rd Po Box 909,Litchfield,CT,06759,United States
4103,"Vanu, Inc.",1 Cambridge Center,Cambridge,MA,02142,United States
5523,Kantor Paula L,,Madison,WI,53706,United States
1809,Pemaquid Oyster Co Inc,Po Box 302,Waldoboro,ME,04572,United States
147,Florida State University,"874 Traditions Way, 3rd Floor",Tallahassee,FL,32306,United States
2623,Spelman College,350 Spelman Lane S W,Atlanta,GA,30314,United States
9062,University of Colorado at Denver-Downtown Campus,"F428, Amc Bldg 500",Aurora,CO,80045,United States
2354,Ohio Northern University,525 Main Street,Ada,OH,45810,United States
71,University of Arizona,888 N Euclid Ave,Tucson,AZ,85721,United States
160,Aspen Center For Physics,700 West Gillespie Street,Aspen,CO,81611,United States
419,Bowling Green State University,106 University Hall,Bowling Green,OH,43403,United States
7634,"Moore, Tyler",,Tulsa,OK,74104,United States
614,"Allegheny University of Health Science, Philadelphia",Broad & Vine,Philadelphia,PA,19129,United States
2269,Iowa Valley Community College District,3702 South Center Street,Marshalltown,IA,50158,United States
236,Muskegon Community College,221 S. Quarterline Road,Muskegon,MI,49442,United States
10242,Oceanic Research Group,59 Old Andover Road,North Reading,MA,01864,United States
75,University of Pittsburgh,University Club,Pittsburgh,PA,15213,United States
2424,University of St. Thomas,2115 Summit Avenue,St. Paul,MN,55105,United States
9,San Diego State University Foundation,5250 Campanile Drive,San Diego,CA,92182,United States
3803,Repligen Corporation,117 Fourth Avenue,Needham,MA,02494,United States
2052,Hispanic Association of Colleges and Universities,8415 Datapoint Drive,San Antonio,TX,78229,United States
125,Michigan State University,Contract And Grant Administratio,East Lansing,MI,48824,United States
1236,Smith College,10 Elm Street,Northampton,MA,01063,United States
5048,Klivans Adam R,,Boston,MA,02138,United States
2362,Eastern Kentucky University,Division Of Sponsored Programs,Richmond,KY,40475,United States
5265,Allegheny-Singer Research Institute,320 E. North Avenue,Pittsburgh,PA,15212,United States
442,University of Southern Mississippi,2609 West 4th St,Hattiesburg,MS,39406,United States
6017,"III-N TECHNOLOGY, INC","Building #37, Reese Tech Center",Lubbock,TX,79416,United States
5603,"Fujitsu Laboratories of America, Inc.","1240 E. Arques Ave, Ms 345",Sunnyvale,CA,94085,United States
6554,Corporation for Education Network Initiatives in California,"16700 Valley View Ave, Suite 400",La Mirada,CA,90638,United States
10769,The Tor Project,"969 Main Street, Suite 206",Walpole,MA,02081,United States
939,Exploratorium,3601 Lyon Street,San Francisco,CA,94123,United States
16,University of California-Santa Barbara,Office Of Research,Santa Barbara,CA,93106,United States
2941,German American Academic Council Foundation USA,1050 Thomas Jefferson Street,Washington,DC,20007,United States
4576,San Juan College,4601 College Boulevard,Farmington,NM,87402,United States
12371,Salgomed Inc.,14020 Boquita Dr.,Del Mar,CA,92014,United States
4287,Statistical Signal Processing Inc,1909 Jefferson Street,Yountville,CA,94599,United States
4703,"Gasch, Audrey P",,Arlington,VA,22230,United States
2617,Kansas City Kansas Public Schools,625 Minnesota Ave,Kansas City,KS,66101,United States
459,EQE International Inc,"300 Commerce Drive, Suite 200",Irvine,CA,92602,United States
2562,"AURA SYSTEMS, INC",2335 Alaska Ave,El Segundo,CA,90245,United States
19,Purdue University,Young Hall,West Lafayette,IN,47907,United States
929,Morgan State University,1700 East Cold Spring Lane,Baltimore,MD,21251,United States
387,Allegheny College,520 North Main Street,Meadville,PA,16335,United States
663,Naval Weapons Center Office of Naval Research,"Attn: Code 511, Dept. Of Navy",Arlington,VA,22217,United States
5165,Georgia Tech Applied Research Corporation,Office Of Sponsored Programs,Atlanta,GA,30332,United States
2129,College of Visual Arts,344 Summit Avenue,St. Paul,MN,55102,United States
677,Aims Community College,5401 West 20th Street,Greeley,CO,80632,United States
2128,North Central Technical College,2441 Kenwood Circle,Mansfield,OH,44901,United States
11610,WiseAgg,4027 Fairfax Center Hunt Tr,Fairfax,VA,22030,United States
275,CUNY Queens College,65 30 Kissena Blvd,Flushing,NY,11367,United States
9371,MW Photonics Incorporated,"433 West Street, Ste 8b",Amherst,MA,01002,United States
11923,Burton Andrew R,,Ann Arbor,MI,48109,United States
4,University of Massachusetts Amherst,Research Administration Building,Amherst,MA,01003,United States
4474,"California State University, Trustees",401 Golden Shore,Long Beach,CA,90802,United States
6658,New York Law School,57 Worth Street,New York,NY,10013,United States
12038,Virtual Device Technologies LLC,13568 Nw Trevino St.,Portland,OR,97229,United States
46,Rutgers University New Brunswick,3 Rutgers Plaza,New Brunswick,NJ,08901,United States
2890,Scripps College,1030 Columbia Ave.,Claremont,CA,91711,United States
800,Texas A&M University-Commerce,Graduate Studies & Research,Commerce,TX,75429,United States
1231,University of Central Oklahoma,100 N University Drive,Edmond,OK,73034,United States
5488,Global Biodiversity Information Facility Secretariat,Universitetsparken 15,Copenhagen,,2100,Denmark
5330,L. S. Technology,"Purdue Research Park,",West Lafayette,IN,47906,United States
266,Oakland University,530 Wilson Hall,Rochester,MI,48309,United States
2876,Pontifical College Josephinum,7625 North High Street,Columbus,OH,43235,United States
1193,Lawrence University,711 East Boldt Way,Appleton,WI,54911,United States
309,SAIC Science Applications International Corporation,1710 Saic Drive,Mclean,VA,22102,United States
1984,Whitworth University,300 W. Hawthorne Rd.,Spokane,WA,99218,United States
2115,New York Institute of Technology,Northern Boulevard,Old Westbury,NY,11568,United States
1438,Concord Consortium,25 Love Lane,Concord,MA,01742,United States
916,"Chicago Information Technologies, Inc",524 West Oakdale Avenue,Chicago,IL,60657,United States
1725,Westminster College of Salt Lake City,1840 South 13th East,Salt Lake City,UT,84105,United States
3037,Tucson Unified School District,1010 East Tenth St/po Box 40400,Tucson,AZ,85717,United States
4811,Association for Computational Liguistics,75 Paterson St.,New Brunswick,NJ,08901,United States
1319,Fort Hays State University,600 Park Street,Hays,KS,67601,United States
204,Loyola University of Chicago,820 N Michigan Ave Fl 1,Chicago,IL,60611,United States
3009,"California State University, Seal Beach",4665 Lampson Ave,Los Alamitos,CA,90720,United States
12368,LighTopTech Corp.,150 Lucius Gordon Dr Ste 100,West Henrietta,NY,14586,United States
807,National Library of Medicine,8600 Rockville Pike,Bethesda,MD,20894,United States
2649,Saint Anselm College,100 Saint Anselm Drive,Manchester,NH,03102,United States
7173,Rollins College,1000 Holt Avenue,Winter Park,FL,32789,United States
11489,"Integrated Adaptive Applications, Inc",2681 Sw 103rd Street,Gainesville,FL,32608,United States
210,Jackson Laboratory,600 Main Street,Bar Harbor,ME,04609,United States
1887,Key Curriculum Press,1150 65th Street,Oakland,CA,94608,United States
585,Hofstra University,Office Of The Provost,Hempstead,NY,11549,United States
4634,University of Hawaii at Hilo,200 West Kawili Street,Hilo,HI,96720,United States
9804,Harding University Main Campus,915 E Market Ave,Searcy,AR,72143,United States
2018,Western State Colorado University,Taylor Hall 321c,Gunnison,CO,81231,United States
153,George Mason University,4400 University Dr,Fairfax,VA,22030,United States
3845,Valparaiso University,1700 Chapel Drive,Valparaiso,IN,46383,United States
650,Department of Labor Bureau of Labor Statistics,,Washington,DC,20233,United States
570,University of Oklahoma Health Sciences Center,1000 Stanton L Young Blvd,Oklahoma City,OK,73117,United States
2053,United States Air Force Academy,Hq Usaf Academy,Usaf Academy,CO,80840,United States
938,Simmons College,300 The Fenway,Boston,MA,02115,United States
2432,Wake Technical Community College,9101 Fayetteville Road,Raleigh,NC,27603,United States
307,Wellesley College,106 Central Street,Wellesley,MA,02481,United States
2430,Texas A&M International University,5201 University Boulevard,Laredo,TX,78041,United States
2878,Webster University,470 East Lockwood,St Louis,MO,63119,United States
3689,Hillsborough Community College,39 Columbia Drive,Tampa,FL,33606,United States
10768,GigaGen Inc.,409 Illinois Street,San Francisco,CA,94158,United States
3891,"Buck, Gregory W",,Arlington,VA,22230,United States
3563,East Bay Institute for Research and Education Inc,150 Muir Road,Martinez,CA,94553,United States
421,Miami University,500 E High Street,Oxford,OH,45056,United States
26,University of Nebraska-Lincoln,312 N 14th Street,Lincoln,NE,68588,United States
599,Naval Postgraduate School,1 University Circle,Monterey,CA,93943,United States
2861,Schaumburg High School,1100 W. Schaumburg Road,Schaumburg,IL,60194,United States
353,University of Toledo Health Science Campus,3000 Arlington Ave.,Toledo,OH,43614,United States
124,Temple University,1938 Liacouras Walk,Philadelphia,PA,19122,United States
3678,Fort Valley State University,1005 State University Drive,Fort Valley,GA,31030,United States
11418,Hanson Robokind And Intelligent Bots LLC,10515 Lennox Lane,Dallas,TX,75229,United States
6520,Rudin Cynthia D,,Princeton,NJ,08540,United States
6779,Tullos Desiree D,,Raleigh,NC,27695,United States
93,University of Central Florida,4000 Cntrl Florida Blvd,Orlando,FL,32816,United States
206,University of Akron,302 Buchtel Common,Akron,OH,44325,United States
1993,Oakwood College,7000 Adventist Boulevard,Huntsville,AL,35896,United States
7893,Rutgers University Newark,"Blumenthal Hall, Suite 206",Newark,NJ,07102,United States
1915,Air Force Institute of Tech,"Afit/enr, 2950 Hobson Way",Wright-patterson Afb,OH,45433,United States
2255,Dibner Institute for the History of Science & Technology,Mit E56-100,Cambridge,MA,02142,United States
4537,Miami-Dade Community College - Wolfson Campus,300 Ne 2nd Avenue,Miami,FL,33132,United States
12291,"CetoTech, Inc",8701 Mallard Creek Rd,Charlotte,NC,28262,United States
4030,Lee University,1120 North Ocoee Street,Cleveland,TN,37311,United States
434,Computing Research Association,"1828 L St., Nw",Washington,DC,20036,United States
6492,AI Access Foundation,326 Loma Vista Street,El Segundo,CA,90245,United States
12336,"AppScale Systems, Inc.",615 State Street,Santa Barbara,CA,93101,United States
1942,California State University-Long Beach,1250 Bellflower Blvd,Long Beach,CA,90840,United States
5118,"Girl Scouts, Hornets' Nest Council",7007 Idlewild Road,Charlotte,NC,28212,United States
2215,Department of Navy Naval Research Laboratory,"4555 Overlook Avenue, Sw",Washington,DC,20375,United States
1207,University of Detroit Mercy,4001 W Mcnichols,Detroit,MI,48221,United States
930,Mini-Surgery Incorporated,245 Tank Farm Road,San Luis Obispo,CA,93401,United States
3,Florida International University,11200 Sw 8th St,Miami,FL,33199,United States
11542,Council for Opportunity in Education,"1025 Vermont Ave., Nw, Suite 900",Washington,DC,20005,United States
1690,New Mexico Highlands University,University Avenue,Las Vegas,NM,87701,United States
2133,Trinity College,Franklin & Mich Ave N E,Washington,DC,20017,United States
2374,Chestnut Hill College,Chestnut Hill,Philadelphia,PA,19118,United States
1996,Western Illinois University,1 University Circle,Macomb,IL,61455,United States
6005,University of Minnesota Duluth,1049 University Drive,Duluth,MN,55812,United States
2889,University of Wisconsin-Stevens Point,2100 Main Street,Stevens Point,WI,54481,United States
452,Nonvolatile Electronics Inc,11409 Valley View Road,Eden Prairie,MN,55344,United States
4653,"World Technology Evaluation Center, Inc.",1653 Lititz Pike 417,Lancaster,PA,17601,United States
3010,Jefferson-Scranton Community Schools,204 W Madison,Jefferson,IA,50129,United States
4798,Saginaw Valley State University,7400 Bay Road,University Center,MI,48710,United States
661,Franklin and Marshall College,Office Of The Provost,Lancaster,PA,17604,United States
4010,Global Wireless Education Consortium,Po Box 443,Avon,MN,56310,United States
9886,"Safaba Translation Solutions, LLC",5124 Beeler Street,Pittsburgh,PA,15217,United States
218,Texas State University - San Marcos,601 University Drive,San Marcos,TX,78666,United States
6430,Freight Pipeline Company,2601 Maguire Blvd,Columbia,MO,65201,United States
2248,NIST,Technology Building,Gaithersburg,MD,20899,United States
264,Southern Methodist University,6425 Boaz,Dallas,TX,75205,United States
151,University of Vermont & State Agricultural College,85 So. Prospect St.,Burlington,VT,05405,United States
11608,"Celect, LLC","80 Allston St., No. 3",Cambridge,MA,02142,United States
6701,Shah Rahul C,,Ann Arbor,MI,48109,United States
696,Department of Air Force Hanscom Air Force Base Contracts Admin.,Ecs/ens,Bedford,MA,01731,United States
9140,Exploratorium,15/17 Piers,San Francisco,CA,94111,United States
1306,Cabrillo College,6500 Soquel Drive,Aptos,CA,95003,United States
5804,"Omega Optics, Inc.",10306 Sausalito Drive,Austin,TX,78759,United States
479,Farnet Inc,"1511 K Street, Nw, Suite 1165",Washington,DC,20005,United States
10178,Oral Roberts University,7777 South Lewis,Tulsa,OK,74171,United States
682,Green River Community College,12401 Se 320th St.,Auburn,WA,98092,United States
5264,"Mexico-North Research Network, Inc.",318 W. Houston St.,San Antonio,TX,78205,United States
12169,Multi Scale Solutions,1500 Bull Lea Rd,Lexington,KY,40511,United States
9810,"Solarmer Energy, Inc.",3445 Fletcher Avenue,El Monte,CA,91731,United States
9318,Texas A&M AgriLife Research,2147 Tamu,College Station,TX,77845,United States
10285,IntelligentSimulations LLC,1022 Laurelwood Drive,Morgantown,WV,26508,United States
500,South Dakota School of Mines and Technology,501 East Saint Joseph Street,Rapid City,SD,57701,United States
5953,Byrnes James S,,Newport,RI,02840,United States
332,Academy of Natural Sciences Philadelphia,1900 Benjamin Franklin Parkway,Philadelphia,PA,19103,United States
171,Western Washington University,516 High Street,Bellingham,WA,98225,United States
2387,University of North Carolina at Pembroke,One University Drive,Pembroke,NC,28372,United States
829,University of Texas Health Science Center San Antonio,7703 Floyd Curl Dr,San Antonio,TX,78229,United States
1219,Randolph-Macon College,310 N. Center Street,Ashland,VA,23005,United States
1266,University of the Pacific,3601 Pacific Avenue,Stockton,CA,95211,United States
359,American Meteorological Society,45 Beacon St,Boston,MA,02108,United States
5923,"Integrated Nanosystems, Inc.",1183 Bordeaux Drive,Sunnyvale,CA,94089,United States
1268,Loyola Marymount University,One Lmu Drive,Los Angeles,CA,90045,United States
669,Smithsonian Institution Astrophysical Observatory,60 Garden St,Cambridge,MA,02138,United States
12228,University of Hawaii System,"2440 Campus Road, Box 368",Honolulu,HI,96822,United States
4053,Ashland University,401 College Avenue,Ashland,OH,44805,United States
9417,SimBiotic Software,P.o. Box 399,Ithaca,NY,14851,United States
2290,Institute for Genomic Research,9712 Medical Center Drive,Rockville,MD,20850,United States
3072,Armstrong Atlantic State University,11935 Abercorn St,Savannah,GA,31419,United States
2305,Society for Advancement of Chicanos & Native Americans in Sci,"333 Front Street, Suite 104",Santa Cruz,CA,95060,United States
158,Haverford College,370 Lancaster Avenue,Haverford,PA,19041,United States
10392,National Earth Science Teachers Association,Po Box 20854,Boulder,CO,80308,United States
1230,Lebanon Valley College,101 N. College Avenue,Annville,PA,17003,United States
381,New Mexico Institute of Mining and Technology,801 Leroy Place,Socorro,NM,87801,United States
2979,Humboldt State University Foundation,P.o. Box 1185,Arcata,CA,95518,United States
515,NATIONAL INSTITUTE OF STANDARDS AND TECHNOLOGY,100 Bureau Drive Ms-8200,Gaithersburg,MD,20899,United States
2401,Lane Community College,4000 East 30th Avenue,Eugene,OR,97405,United States
7162,BIATECH Nonprofit Research Center,900 9th Ave,Seattle,WA,98101,United States
788,University of Memphis,Administration 315,Memphis,TN,38152,United States
146,University of Georgia Research Foundation Inc,200 D.w. Brooks Drive,Athens,GA,30602,United States
205,Oregon Graduate Institute of Science & Technology,20000 Nw Walker Road,Beaverton,OR,97006,United States
6577,Biospeech Incorporated,940 Upper Devon Ln,Lake Oswego,OR,97034,United States
10351,"Technology Holding, LLC",800 North 350 West,Salt Lake City,UT,84103,United States
11487,Innovatia Medical Systems LLC,"450 Knights Run Avenue, #1003",Tampa,FL,33602,United States
6678,Macomb Community College,14500 Twelve Mile Road,Warren,MI,48093,United States
3074,Marymount University,2807 North Glebe Road,Arlington,VA,22207,United States
392,University of Mississippi Medical Center,2500 North State Street,Jackson,MS,39216,United States
519,Grinnell College,1121 Park Street,Grinnell,IA,50112,United States
2,University of Maryland Baltimore County,1000 Hilltop Circle,Baltimore,MD,21250,United States
2994,Triangle Coalition for Science and Technology Education,1840 Wilson Boulevard,Arlington,VA,22201,United States
69,University of Texas at Austin,"101 E. 27th Street, Suite 5.300",Austin,TX,78712,United States
8373,Insite Medical Technologies,1300 White Oaks Road,Campbell,CA,95008,United States
214,San Jose State University Foundation,210 North Fourth Street,San Jose,CA,95112,United States
505,Hobart and William Smith Colleges,337 Pulteney Street,Geneva,NY,14456,United States
437,Hope College,141 E. 12th Street,Holland,MI,49422,United States
11619,"Dena Technologies, Inc.",5808 Morning Glory Lane,Plano,TX,75093,United States
7601,Asian Technology Information Program,1400 Central Ave Se,Albuquerque,NM,87196,United States
10842,Program for Appropriate Technology in Health,2201 Westlake Ave,Seattle,WA,98121,United States
1970,Springfield Technical Community College,"One Armory Square, Ste 1",Springfield,MA,01102,United States
4016,Ilisagvik College,P.o. Box 749,Barrow,AK,99723,United States
8937,The MIND Research Network,1101 Yale Blvd. Ne,Albuquerque,NM,87106,United States
3497,Westwood Elementary,1900 Kansas,Woodward,OK,73801,United States
138,University of California-Riverside,Office Of Research,Riverside,CA,92521,United States
25,Baylor College of Medicine,One Baylor Plaza,Houston,TX,77030,United States
4813,Tomas Rivera Policy Institute,"650 Childs Way, Lewis Hall",Los Angeles,CA,90089,United States
411,University of Denver,2199 S. University Blvd.,Denver,CO,80208,United States
7690,"Romny Scientific, Inc.",1192 Cherry Avenue,San Bruno,CA,94066,United States
2293,Molecular OptoElectronics Corporation,68 Denison Road,Schenectady,NY,12309,United States
2184,Savannah State University,State College Branch,Savannah,GA,31404,United States
8983,"Curved Light Productions, LLC",42 Scallop Avenue,East Hampton,NY,11937,United States
8284,"TestWorks, Inc.",1511 Brimfield Drive,Sewickley,PA,15143,United States
385,University of Massachusetts Boston,100 Morrissey Boulevard,Dorchester,MA,02125,United States
473,Washington University School of Medicine,660 South Euclid Avenue,Saint Louis,MO,63110,United States
638,John Carroll University,1 John Carroll Blvd,Cleveland,OH,44118,United States
386,Field Museum of Natural History,1400 S Lake Shore Dr,Chicago,IL,60605,United States
4186,American Institute of Mathematics,360 Portage Avenue,Palo Alto,CA,94306,United States
1953,Stonehill College,320 Washington Street,Easton,MA,02356,United States
2616,History Associates Inc,,Rockville,MD,20850,United States
1818,RESODYN CORPORATION,130 N Main St Ste 600,Butte,MT,59701,United States
2494,UNIAX Corporation,6780 Cortona Drive,Santa Barbara,CA,93117,United States
188,University of North Carolina at Wilmington,601 South College Road,Wilmington,NC,28403,United States
2087,Palo Alto Research Center Incorporated,3333 Coyote Hill Road,Palo Alto,CA,94304,United States
4989,Claflin University,400 Magnolia Street,Orangeburg,SC,29115,United States
645,Telecordia,445 South Street,Morristown,NJ,07960,United States
357,Georgia Southern University,P.o. Box 8005,Statesboro,GA,30460,United States
293,Marine Biological Laboratory,7 M B L St,Woods Hole,MA,02543,United States
1534,Thomas Dale High School,3626 W Hundred Road,Chester,VA,23831,United States
1714,Florida Community College at Jacksonville,501 West State Street,Jacksonville,FL,32202,United States
4553,North Georgia College,82 College Circle,Dahlonega,GA,30597,United States
3629,Dana-Farber Cancer Institute,Office Of Grants And Contracts,Boston,MA,02215,United States
6253,Institute For Defense Analyses,4850 Mark Center Drive,Alexandria,VA,22311,United States
12366,"Cepand, Inc.",160 Brannan St Apt 402,San Francisco,CA,94107,United States
21,University of California-Santa Cruz,1156 High Street,Santa Cruz,CA,95064,United States
747,Ball State University,2000 University Ave,Muncie,IN,47306,United States
475,Mote Marine Laboratory,1600 Ken Thompson Parkway,Sarasota,FL,34236,United States
3306,"Grosch, Herbert R",,Portland,OR,97210,United States
4631,"Reed, David L",,Salt Lake City,UT,84112,United States
4955,Western Kentucky University Research Foundation,Western Kentucky University,Bowling Green,KY,42101,United States
247,"Automated Functions, Inc.","7700 Leesburg Pike, Suite 420",Falls Church,VA,22043,United States
465,Institute of Ecosystem Studies,2801 Sharon Tpke,Millbrook,NY,12545,United States
4389,"Gardner, Jeffrey P",,Seattle,WA,98105,United States
12193,FTL Labs Corporation,218 Strong Street,Amherst,MA,01002,United States
2017,Hauptman-Woodward Medical Research Institute Inc,700 Ellicott Street,Buffalo,NY,14203,United States
3109,Wheaton College,26 East Main Street,Norton,MA,02766,United States
8457,Polk Community College,999 Avenue H N E,Winter Haven,FL,33881,United States
7975,Valencell Inc.,920 Main Campus Drive,Raleigh,NC,27606,United States
1687,Council of Chief State School Officers,1 Massachusetts Ave Nw,Washington,DC,20001,United States
2411,Saint Joseph's College,278 Whites Bridge Rd.,Standish,ME,04084,United States
131,University of Maryland College Park,3112 Lee Bldg,College Park,MD,20742,United States
6862,"ADVENTIUM ENTERPRISES, LLC","111 Third Ave S, Suite 100",Minneapolis,MN,55401,United States
281,Missouri Botanical Garden,2345 Tower Grove Ave,Saint Louis,MO,63110,United States
6451,"Separation design Group, LLC",931 Rolling Meadows Road,Waynesburg,PA,15370,United States
4212,House Ear Institute,2100 West Third Street,Los Angeles,CA,90057,United States
3503,Philomath High School,2054 Applegate Street,Philomath,OR,97370,United States
824,American University,"4400 Massachusetts Avenue, Nw",Washington,DC,20016,United States
2956,International Seismological Centre,C/o University Of Oxford,"Thatcham, Rg19 4ns",,,United Kingdom
2832,Champaign Central High School,610 W. University Avenue,Champaign,IL,61820,United States
12359,"3D Biotek, LLC",675 Us Highway 1,North Brunswick,NJ,08902,United States
7792,University of Massachusetts Donahue Institute,"100 Venture Way, Suite 9",Hadley,MA,01035,United States
4783,WAMC Northeast Public Radio,318 Central Avenue,Albany,NY,12206,United States
4851,MedStar Health Research Institute,6495 New Hampshire Avenue,Hyattsville,MD,20783,United States
221,Otterbein College,1 S. Grove St.,Westerville,OH,43081,United States
252,Texas Christian University,2800 South University Drive,Fort Worth,TX,76129,United States
10861,"BitSight Technologies, Inc.",738 Main Street,Waltham,MA,02451,United States
3565,Educause,282 Century Place,Louisville,CO,80027,United States
1173,Inter American University of Puerto Rico San Juan,Central Office Of The System,San Juan,PR,00936,United States
11392,ORB Analytics,490 Virginia Road,Concord,MA,01742,United States
5943,Dakota County Technical College,1300 East 145th Street,Rosemount,MN,55068,United States
6505,Open Source Project for Network Data Access Protocols,165 Dean Knauss Drive,Narragansett,RI,02882,United States
9418,New School University,66 W 12th St Rm 800,New York,NY,10011,United States
2944,Alabama State University,915 South Jackson Street,Montgomery,AL,36101,United States
476,Trinity College,300 Summit Street,Hartford,CT,06106,United States
3308,INTERNET2,1150 18th St Nw,Washington,DC,20036,United States
3593,Internet Multicasting Service,4975 Eisenhower Avenue,Alexandria,VA,22304,United States
8375,Baker College Center for Graduate Studies,1116 W. Bristol Road,Flint,MI,48507,United States
2652,"Loyola University Maryland, Inc.",4501 N Charles St,Baltimore,MD,21210,United States
1778,Decision Systems International,"3060 Peachtree Road, Suite 1462",Atlanta,GA,30305,United States
2329,University of The Virgin Islands,2 John Brewer's Bay,Charlotte Amalie,VI,00802,United States
731,Sojourner-Douglas College,500 North Caroline Street,Baltimore,MD,21205,United States
2319,American Society For Cell Biology,8120 Woodmont Ave Ste 750,Bethesda,MD,20814,United States
6741,Anshelevich Elliot I,,Ithaca,NY,14853,United States
6034,3SRM,965 Hao St.,Honolulu,HI,96821,United States
6633,Free Standards Group,2370 Market Street,San Francisco,CA,94114,United States
1316,University of Wisconsin-Platteville,1 University Plaza,Platteville,WI,53818,United States
911,The University of Montana-Western,710 South Atlantic Street,Dillon,MT,59725,United States
7129,"Add-vision, Incorporated",1600 Green Hills Rd. Suite #100,Scotts Valley,CA,95066,United States
9896,"CyberAnalytix, LLC",738 Main St Pmb 398,Waltham,MA,02451,United States
346,Boise State University,1910 University Drive,Boise,ID,83725,United States
2950,Education Commission of the States,700 Broadway Suite 1200,Denver,CO,80203,United States
737,Consortium for International Earth Science Information Network,Po Box 8689,Ann Arbor,MI,48107,United States
3685,York Technical College,452 S. Anderson Rd,Rock Hill,SC,29730,United States
3096,Bethel College,300 East 27th Street,North Newton,KS,67117,United States
595,Texas AgriLife Research,2147 Tamu,College Station,TX,77845,United States
9139,CUNY John Jay College of Criminal Justice,524 West 59th Street,New York,NY,10019,United States
2985,Canajoharie Central School,10 Erie Blvd.,Canajoharie,NY,13317,United States
6087,Spoke Software,577c College Ave,Palo Alto,CA,94306,United States
5582,Roughgarden Tim,,Ithaca,NY,14853,United States
11540,York College of Pennsylvania,441 Country Club Road,York,PA,17403,United States
5969,Fraser Research Inc. A Not For Profit Corporation,62 Carriage House Road,Bernardsville,NJ,07924,United States
41,University of Rhode Island,Research Office,Kingston,RI,02881,United States
3110,Fox Valley Technical College,1825 North Bluemound Drive,Appleton,WI,54913,United States
3339,College of Saint Joseph,71 Clement Road,Rutland,VT,05701,United States
5249,Institute for Women and Technolgoy,"1501 Page Mill Road, Ms 1105",Palo Alto,CA,94304,United States
196,Barnard College,3009 Broadway,New York,NY,10027,United States
9200,Johnson Philip L,,Berkeley,CA,94710,United States
6417,"NANOPLEX TECHNOLOGIES, INC","665 Clyde Avenue, Suite A",Mountain View,CA,94043,United States
7056,National Federation of the Blind,1800 Johnson Street,Baltimore,MD,21230,United States
6218,"Shea-Brown, Eric T",,New York,NY,10017,United States
11468,"GlucoSentient, Inc.",60 Hazelwood Drive,Champaign,IL,61820,United States
3615,Washington and Jefferson College,60 South Lincoln St,Washington,PA,15301,United States
2964,Adler Planetarium,1300 S. Lake Shore Drive,Chicago,IL,60605,United States
2951,Keystone Symposia on Molecular and Cellular Biology,Po Box 1630,Silverthorne,CO,90498,United States
5047,Virginia Community College System IE-IT,"James Monroe Bldg, 15th Floor",Richmond,VA,23219,United States
9034,University of New Hampshire,51 College Rd Service Bldg 107,Durham,NH,03824,United States
8627,Gray Steven A,,Jersey City,NJ,07304,United States
2116,Old Colorado City Historical Society,1 South 24th Street,Colorado Springs,CO,80904,United States
5431,ADAPTIVE PROCESS TECHNOLOGIES,9350 Whispering Wind Rd,Lincoln,NE,68512,United States
4517,"Apollo Group, Incorporated",4615 East Elwood Street,Phoenix,AZ,85040,United States
4910,"ANTHROTRONIX, INC.",8737 Colesville Rd Suite L203,Silver Spring,MD,20910,United States
163,California Institute of Technology,1200 E California Blvd,Pasadena,CA,91125,United States
662,Indiana State University,200 N 7th Street,Terre Haute,IN,47809,United States
4660,Research Triangle Institute,3040 Cornwallis Road,Research Triangle Park,NC,27709,United States
832,Hampton University,100 E. Queen Street,Hampton,VA,23668,United States
13,University of Texas at Dallas,800 W. Campbell Rd.,Richardson,TX,75080,United States
7019,South Bronx Overall Economic Development Corporation,555 Bergen Avenue,Bronx,NY,10455,United States
250,"Institute of Electrical & Electronics Engineers, Inc.",445 Hoes Lane,Piscataway,NJ,08854,United States
604,Institute For Advanced Study,Einstein Drive,Princeton,NJ,08540,United States
3877,"ITN ENERGY SYSTEMS, INC.",8130 Shaffer Pkwy,Littleton,CO,80127,United States
1980,Roosevelt University,430 S Michigan Avenue,Chicago,IL,60605,United States
12147,Smith Douglas C,,Houghton,MI,49931,United States
3346,Bethune-Cookman College,640 Mary Mcleod Bethune Blvd.,Daytona Beach,FL,32114,United States
2341,Elmhurst College,190 Prospect,Elmhurst,IL,60126,United States
144,Iowa State University,1138 Pearson,Ames,IA,50011,United States
9347,Augsburg College,2211 Riverside Avenue,Minneapolis,MN,55454,United States
1318,University of Central Missouri,Sponsored Programs,Warrensburg,MO,64093,United States
7363,Pirouette Software Consulting,1030 N. State St.,Chicago,IL,60610,United States
6468,"Fundamental Applied Biology, Inc.","1455 Adams Drive, Suite 1015",Menlo Park,CA,94025,United States
2388,Portland Community College,12000 Sw 49th Avenue,Portland,OR,97219,United States
715,"BIOFORCE NANOSCIENCES, INC.","1615 Golden Aspen Drive, Suite 1",Ames,IA,50010,United States
126,University of California-Davis,Or/sponsored Programs,Davis,CA,95618,United States
5819,"K&A Wireless, LLC",2617 Juan Tabo Blvd Ne Ste A,Albuquerque,NM,87112,United States
2355,Earlham College,801 National Road West,Richmond,IN,47374,United States
10,University of Illinois at Urbana-Champaign,Suite A,Champaign,IL,61820,United States
1305,Saint Edward's University,3001 South Congress Ave,Austin,TX,78704,United States
909,Furman University,3300 Poinsett Highway,Greenville,SC,29613,United States
3013,Alaska Pacific University,4101 University Drive,Anchorage,AK,99508,United States
2443,Pitzer College,1050 Mills Avenue,Claremont,CA,91711,United States
1700,Seattle Public Schools,2445 3rd Ave S,Seattle,WA,98124,United States
2970,California State University Monterey Bay Foundation,100 Campus Center,Seaside,CA,93955,United States
4982,"Optinal Engineering Solutions, Inc.",3715 Traynham Road,Cleveland,OH,44122,United States
5952,Western Pennsylvania Hospital Foundation,4818 Liberty Avenue,Pittsburgh,PA,15224,United States
10958,InferLink Corporation,326 Loma Vista Street,El Segundo,CA,90245,United States
6790,Brennan Patricia,,Ithaca,NY,14853,United States
2065,College of the Redwoods,7351 Tompkins Hill Road,Eureka,CA,95501,United States
482,Ohio University,108 Cutler Hl,Athens,OH,45701,United States
4050,Rider University,P O Box 6400,Lawrenceville,NJ,08648,United States
64,Johns Hopkins University,3400 N Charles St,Baltimore,MD,21218,United States
544,California State University-Fullerton Foundation,2600 E. Nutwood Ave.,Fullerton,CA,92831,United States
5983,The Long Now Foundation,Fort Mason Center,San Francisco,CA,94123,United States
5535,Green David L,,Minneapolis,MN,55418,United States
5164,Utica College,1600 Burrstone Road,Utica,NY,13502,United States
1311,Mercy College,555 Broadway,Dobbs Ferry,NY,10522,United States
1161,Eckerd College,4200 54th Avenue South,Saint Petersburg,FL,33711,United States
2253,SUNY College at Brockport,Research Foundation Of Suny,Brockport,NY,14420,United States
300,Maryland Institute College of Art,1300 Mount Royal Avenue,Baltimore,MD,21217,United States
174,University of Virginia Main Campus,P.o. Box 400195,Charlottesville,VA,22904,United States
4463,Memphis City Schools,2597 Avery Avenue,Memphis,TN,38112,United States
1214,Northwest Nazarene College,623 Holly,Nampa,ID,83686,United States
1404,Department of Education,"400 Maryland Avenue, Sw",Washington,DC,20202,United States
373,Youngstown State University,One University Plaza,Youngstown,OH,44555,United States
8418,Good Jeffrey M,,Tucson,AZ,85721,United States
2400,East Stroudsburg University of Pennsylvania,200 Prospect Street,East Stroudsburg,PA,18301,United States
1401,Oak Ridge Associated Universities,100 Orau Way,Oak Ridge,TN,37830,United States
289,University of Wisconsin-Eau Claire,Park & Garfield,Eau Claire,WI,54702,United States
143,CUNY Herbert H Lehman College,250 Bedford Park Blvd West,Bronx,NY,10468,United States
12267,"Optimized Markets, Inc.",830 Amberson Avenue,Pittsburgh,PA,15232,United States
4538,Spalding University,851 S Fourth Street,Louisville,KY,40203,United States
383,Hamilton College,198 College Hill Rd,Clinton,NY,13323,United States
2399,Dakota State University,820 N. Washington Avenue,Madison,SD,57042,United States
6009,Caveo Technology LLC,49 Lexington,Newton,MA,02465,United States
430,University of Montana,32 Campus Drive Main Hall,Missoula,MT,59812,United States
2131,Florida Memorial College,15800 N W 42nd Avenue,Miami Gardens,FL,33054,United States
1269,Southern Oregon University,1250 Siskiyou Boulevard,Ashland,OR,97520,United States
4525,Corporation for Research and Educational Networking,"1150 18th St., N.w.",Washington,DC,20036,United States
3093,Simpson College,701 North C Street,Indianola,IA,50125,United States
8267,"ZT Solar, Inc",202 E. Border St.,Arlington,TX,76010,United States
2279,New England Deaconess Hospital,185 Pilgrim Rd,Boston,MA,02215,United States
1234,Black Hills State University,1200 University St,Spearfish,SD,57799,United States
1147,Olympus High School,4055 South 2300 East,Salt Lake City,UT,84124,United States
514,Lewis and Clark College,0615 S W Palatine Hill Rd,Portland,OR,97219,United States
9379,"Isosceles, LLC",3709 Linnet Ln,Portsmouth,VA,23703,United States
201,CUNY Graduate School University Center,365 Fifth Avenue,New York,NY,10016,United States
1216,Wabash College,301 West Wabash,Crawfordsville,IN,47933,United States
10304,"Araca, Inc.","2550 E River Rd, Suite 12204",Tucson,AZ,85718,United States
6626,Institute for Higher Education Policy,"1320 19th Street, Nw",Washington,DC,20036,United States
4310,Potomac Institute for Policy Studies,"901 N. Stuart Avenue, Suite 200",Arlington,VA,22203,United States
530,Francis Marion University,P. O. Box 100547,Florence,SC,29501,United States
3276,Bootstrap Alliance,6505 Kaiser Drive,Fremont,CA,94025,United States
154,Texas A&M Research Foundation,"400 Harvey Mitchell Parkway, S",College Station,TX,77845,United States
5772,Medaille College,18 Agassiz Circle,Buffalo,NY,14214,United States
8817,International Society for Computational Biology,Sdsc/ucsd Mc0505,La Jolla,CA,92093,United States
3617,American Rock Mechanics Association Foundation,600 Woodland Terrace,Alexandria,VA,22302,United States
510,Westmont College,955 La Paz Road,Santa Barbara,CA,93108,United States
10368,Heller Katherine A,,London,,,United Kingdom
4867,University of Maine at Machias,116 O'brien Avenue,Machias,ME,04654,United States
2440,Southeastern Oklahoma State University,"1405 N. 4th, Pmb 4236",Durant,OK,74701,United States
7799,Pfaendtner Jim,,Evanston,IL,60208,United States
257,Siena Heights College,1247 Siena Heights Drive,Adrian,MI,49221,United States
7536,Childrens Hospital Los Angeles,Sponsored Projects Administratio,Los Angeles,CA,90027,United States
7791,Banks William E,,Talence,,,France
3011,Andrew College,413 College Street,Cuthbert,GA,31740,United States
335,University of Maryland Center for Environmental Sciences,Box 775,Cambridge,MD,21613,United States
12356,AndrosRobotics LLC,4 Highland Park,Cambridge,MA,02139,United States
8387,New Mexico Consortium,"4200 West Jemez Road, Suite 301",Los Alamos,NM,87544,United States
1397,Jackson State University,1400 J R Lynch St.,Jackson,MS,39217,United States
1164,Montgomery County Public Schools,850 Hungerford Drive,Rockville,MD,20850,United States
1442,Madison Area Technical College,1701 Wright Street,Madison,WI,53704,United States
4640,University South Carolina Research Foundation,901 Sumter Street,Columbia,SC,29208,United States
804,Bartol Research Institute,University Of Delaware,Newark,DE,19716,United States
2098,Rand Corporation,1776 Main St,Santa Monica,CA,90401,United States
4283,University of Minnesota Morris,137 Behmler Hall,Morris,MN,56267,United States
4344,"JunTech, Inc.",2314 E. Stratford Ct.,Milwaukee,WI,53211,United States
320,MA Fellowships,,Arlington,MA,22230,United States
4563,Kentucky Community & Technical College System,300 North Main Street,Versailles,KY,40383,United States
9681,Applied Computer Security Associates,C/o Dr. Marshall Abrams,Silver Spring,MD,20910,United States
8911,"Snibbe Interactive, Inc.",1073 Howard Street,San Francisco,CA,94103,United States
3170,POWDERMET INC,24112 Rockwell Dr,Euclid,OH,44117,United States
569,Prairie View A&M Research Foundation,P O Box 667,Prairie View,TX,77446,United States
5885,"EMBEDDED RESEARCH SOLUTIONS, INC","201 Defense Hwy., Ste 203",Annapolis,MD,21401,United States
2284,Miami Museum of Science Inc,3280 South Miami Avenue,Miami,FL,33129,United States
1261,Texas A&M University-Kingsville,Campus Box 201,Kingsville,TX,78363,United States
9837,Portland VA Research Foundation,3710 Sw Us Veterans Hospital Roa,Portland,OR,97239,United States
7722,"Diagis Systems, Inc.",75 5th Street N.w.,Atlanta,GA,30308,United States
494,Denver Museum of Nature and Science,2001 Colorado Boulevard,Denver,CO,80205,United States
3684,Alabama Southern Community College,P O Box 2000,Monroeville,AL,36461,United States
9215,Novarials Corporation,"3-h Gill Street, Suite 200",Woburn,MA,01801,United States
1218,Arkansas State University Main Campus,504 University Loop East,Jonesboro,AR,72401,United States
1437,Educational Testing Service,Rosedale Road,Princeton,NJ,08541,United States
2621,Akron Public Schools,70 N. Broadway,Akron,OH,44308,United States
427,University of North Carolina Greensboro,1111 Spring Garden Street,Greensboro,NC,27412,United States
3333,South Carolina Research Authority,1000 Catawba Street,Columbia,SC,29201,United States
6466,"National Hispanic University, LLC",14271 Story Road,San Jose,CA,95127,United States
1710,SUNY College of Environmental Science and Forestry,Po Box 9,Albany,NY,12201,United States
7940,"PAIR Technologies, LLC",1 Innovation Way,Newark,DE,19711,United States
2346,South Dakota State University,Administration Lane,Brookings,SD,57007,United States
311,Culinary Institute of America,433 Albany Post Road,Hyde Park,NY,12538,United States
404,University of Maryland Biotechnology Institute,"701 East Pratt St., Suite 200",Baltimore,MD,21202,United States
2940,New England Complex Systems Institute,24 Mt. Auburn Street,Cambridge,MA,02138,United States
5852,VideoMining Corporation,403 S Allen St Ste 101,State College,PA,16801,United States
887,"Bermuda Institute of Ocean Sciences (BIOS), Inc.",17 Biological Station,St. George's Ge01,,,Bermuda
523,University of New Orleans,2000 Lakeshore Drive,New Orleans,LA,70148,United States
116,"NorthWest Research Associates, Incorporated",4118 148th Ave Ne,Redmond,WA,98052,United States
5778,"Polychromix, Inc.",10 State Street,Woburn,MA,01801,United States
175,"HYPRES, Inc.",175 Clearbrook Rd,Elmsford,NY,10523,United States
836,Consortium of Universities for Res in Earthquake Engineering,1301 South 46th Street,Richmond,CA,94804,United States
823,Valencia Community College,P O Box 3028,Orlando,FL,32802,United States
6187,Shew Woodrow L,,College Park,MD,20742,United States
5809,"MEMScan, Incorporated",1450 Pebble Creek Rd.,Marietta,GA,30067,United States
5763,Valley City State University,101 College St Se,Valley City,ND,58072,United States
2104,Autonomous Undersea Systems Institute,86 Old Concord Turnpike,Lee,NH,03824,United States
110,Georgia State University,30 Courtland Street,Atlanta,GA,30303,United States
6855,Nanonex Corporation,1 Deerpark Dr Ste O,Monmouth Junction,NJ,08852,United States
6756,Lee James R,,Berkeley,CA,94710,United States
1715,Ferris State University,1201 S. State Street,Big Rapids,MI,49307,United States
4376,SUNY College of Technology Alfred,10 Upper College Drive,Alfred,NY,14802,United States
6456,dTEC Systems L.L.C.,3012 16th Avenue West,Seattle,WA,98119,United States
6651,Oregon Public Broadcasting,7140 Sw Macadam Ave,Portland,OR,97219,United States
11433,"Sky Research, Inc.",445 Dead Indian Memorial Rd.,Ashland,OR,97520,United States
4666,"Wiggins, Chris H",,Princeton,NJ,08540,United States
1298,Daytona State College,1200 W. International Speedway,Daytona Beach,FL,32114,United States
2212,Carlow College,3333 Fifth Avenue,Pittsburgh,PA,15213,United States
7609,George Fox University,414 N Meridian,Newberg,OR,97132,United States
11394,Incaa Designs,11140 Wing Point Drive N.e.,Bainbridge Island,WA,98110,United States
5561,Trenholm State Technical College,1225 Air Base Boulevard,Montgomery,AL,36108,United States
6043,"Azomai Systems, Inc.",1064 Clifton Road,Atlanta,GA,30307,United States
5258,EdLab Group Foundation,19020 33rd Avenue West,Lynnwood,WA,98036,United States
10413,"Complex Communications Research, Inc",1059 Harriman Ct,West Chester,PA,19380,United States
3341,Christ The King Seminary,711 Knox Road,East Aurora,NY,14052,United States
52,University of Wyoming,1000 E. University Avenue,Laramie,WY,82071,United States
207,University of Kentucky Research Foundation,109 Kinkead Hall,Lexington,KY,40506,United States
1317,Weber State University,3848 Harrison Boulevard,Ogden,UT,84408,United States
6864,"Kubota Research Associates, Inc.",100 Hobson Dr,Hockessin,DE,19707,United States
7170,Wheaton College,501 College Avenue,Wheaton,IL,60187,United States
7983,WisdomTools Enterprises Inc,Suite 206,Bloomington,IN,47404,United States
680,Manatee Community College,5840 26th Street West,Bradenton,FL,34207,United States
7883,"The Groden Center, Inc.",86 Mt. Hope Ave.,Providence,RI,02906,United States
145,Lamar University Beaumont,4400 Port Arthur Road,Beaumont,TX,77705,United States
1345,"Minnesota State University, Mankato",Research And Sponsored Programs,Mankato,MN,56001,United States
6231,Aaronson Scott J,,Berkeley,CA,94710,United States
195,Bucknell University,7th & Moore Ave,Lewisburg,PA,17837,United States
9562,Bluewater Technology,Meridian Technology Center,Stillwater,OK,74074,United States
5466,"Institute for Scientific Research, Inc.","320 Adams Street, Suite 201",Fairmont,WV,26554,United States
545,University of Tennessee Space Institute,411 B. H. Goethert Pkwy.,Tullahoma,TN,37388,United States
2179,"Harbor Branch Oceanographic Institution, Inc.",5600 Us 1 North,Fort Pierce,FL,34946,United States
2991,Foundation for International Scientific Cooperation,1300 University Avenue,Madison,WI,53706,United States
49,Columbia University,2960 Broadway,New York,NY,10027,United States
193,Bowdoin College,6000 College Sta,Brunswick,ME,04011,United States
6553,University of British Columbia,6190 Agronomy Rd Suite 102,"Vancouver, Bc V6t1z3",,,Canada
94,University of Tennessee Knoxville,1 Circle Park,Knoxville,TN,37996,United States
11712,"Open Source Robotics Foundation, Inc.",419 N Shoreline Blvd,Mountain View,CA,94043,United States
633,Rochester Institute of Tech,1 Lomb Memorial Dr,Rochester,NY,14623,United States
693,Baltimore City Community College,2901 Liberty Heights Ave,Baltimore,MD,21215,United States
3032,Middle Tennessee State University,1301 E. Main,Murfreesboro,TN,37132,United States
213,University of Texas at Arlington,1 University Of Texas At,Arlington,TX,76019,United States
11401,Andromeda Scientific LLC,2324 Marwick Ave,Long Beach,CA,90815,United States
5994,University of California - Merced,5200 North Lake Road,Merced,CA,95343,United States
1464,Foundation for Advancements in Science & Education,4801 Wilshire Blvd Suite 215,Los Angeles,CA,90010,United States
4597,"Kalai, Adam",,Chicago,IL,60605,United States
233,Pomona College,Alexander Hall,Claremont,CA,91711,United States
3095,Minot State University,500 University Avenue West,Minot,ND,58707,United States
2008,Duquesne University,Room 310 Administration Building,Pittsburgh,PA,15282,United States
6636,University of Kansas Medical Center Research Institute Inc,Kumc Research Institute,Kansas City,KS,66160,United States
2304,Montana University System Office,307 Montana Hall,Helena,MT,59601,United States
105,Illinois Institute of Technology,3300 South Federal Street,Chicago,IL,60616,United States
12227,Pacific Northwest Research Institute,720 Broadway,Seattle,WA,98122,United States
935,Education Development Center,43 Foundry Avenue,Waltham,MA,02453,United States
2113,Valley Forge Christian College,1401 Charlestown Road,Phoenixville,PA,19460,United States
4073,Unconventional Wisdom,813 Villanova Drive,Davis,CA,95616,United States
4540,King & Queen County School Division,P.o. Box 97 (rt. 681),King & Queen Court House,VA,23085,United States
6129,MCNC Research and Development Institute,3021 Cornwallis Rd,Research Triangle Park,NC,27709,United States
217,Colorado School of Mines,1500 Illinois,Golden,CO,80401,United States
606,Pacific Lutheran University,12180 Park Ave S,Tacoma,WA,98447,United States
1203,Eastern Illinois University,600 Lincoln Avenue,Charleston,IL,61920,United States
602,Medical University of South Carolina,171 Ashley Ave,Charleston,SC,29425,United States
607,Oberlin College,70 N. Professor Street,Oberlin,OH,44074,United States
640,University of Kentucky,201 Kinkead Hall,Lexington,KY,40506,United States
222,CUNY City College,Convent Ave At 138th St,New York,NY,10031,United States
232,Santa Clara University,500 El Camino Real,Santa Clara,CA,95053,United States
3274,Dayton City School District,348 West First Street,Dayton,OH,45402,United States
2063,Unit Seven Schools,"408 N Central, Box S",Tolono,IL,61880,United States
7323,"H-Cubed, Inc.",26988 Valeside,Olmsted Falls,OH,44138,United States
1940,Illinois Wesleyan University,1312 Park Street,Bloomington,IL,61702,United States
2394,St. Petersburg College,P.o. Box 13489,St. Petersburg,FL,33733,United States
137,University of Washington,4333 Brooklyn Ave Ne,Seattle,WA,98195,United States
2042,Institut des Hautes Etudes Scientifques,"Le Bois-marie,",Bures-sur-yvette,,91440,France
22,University of California-Berkeley,Sponsored Projects Office,Berkeley,CA,94704,United States
12257,Novoreach Technologies LLC,1407 Montague St,Midland,MI,48642,United States
6557,Pine Technical College,1000 4th Street,Pine City,MN,55063,United States
2949,American Indian Science and Engineering Society (AISES),Po Box 9828,Albuquerque,NM,87119,United States
445,Texas Higher Education Coordinating Board,,Austin,TX,78701,United States
1987,Bowie State University,14000 Jericho Park Road,Bowie,MD,20715,United States
3258,Barnes Jewish Hospital,,St. Louis,MO,63120,United States
12386,"Liberty University, Inc.",1971 University Boulevard,Lynchburg,VA,24502,United States
9537,CoBlitz LLC,1 Dorset Court,Princeton,NJ,08540,United States
62,Case Western Reserve University,"Nord Hall, Suite 615",Cleveland,OH,44106,United States
412,Marshall University Research Corporation,401 11th Street,Huntington,WV,25701,United States
743,University of Alabama in Huntsville,301 Sparkman Drive,Huntsville,AL,35805,United States
9144,"Taylor, Valerie J",,Ewing,NJ,08638,United States
7387,Environmental Robots Incorporated,"909 Virginia, Ne, Suite 205",Albuquerque,NM,87108,United States
5361,Machine Visionaries,802 Belmont Road,Grand Forks,ND,58201,United States
6234,Tanner Jared W,,Davis,CA,95617,United States
484,American Geophysical Union,2000 Florida Ave Nw,Washington,DC,20009,United States
6609,Clearsighted,Suilte 4210,Ames,IA,50010,United States
11209,Miller Kevin H,,Gainesville,FL,32607,United States
7,Tulane University,6823 St Charles Avenue,New Orleans,LA,70118,United States
1941,University Auxiliary and Research Services Corporation,435 East Carmel Street,San Marcos,CA,92078,United States
3070,Northern New Mexico College,921 Paseo De Onate,Espanola,NM,87532,United States
1917,"University of Texas, M.D. Anderson Cancer Center","1515 Holcombe, Unit 176",Houston,TX,77030,United States
11163,Inver Hills Community College,2500 80th St. E.,Inver Grove Heights,MN,55076,United States
668,"Georgia State University Research Foundation, Inc.",G76dahlberg Hall 30 Courtland St,Atlanta,GA,30303,United States
295,MCNC,3021 Cornwallis Rd,Research Triangle Park,NC,27709,United States
4086,Interface Studies Inc.,4380 Nw Malhuer Ave,Portland,OR,97229,United States
3679,Georgia Perimeter College,3251 Panthersville Rd,Decatur,GA,30034,United States
10778,"Wasatch Photonics, Inc.",1301 N. 1000 W. Suite 150,Logan,UT,84321,United States
6069,"Applied Media Analysis, Inc.",387 Technology Drive,College Park,MD,20742,United States
394,Cornell Univ - State: AWDS MADE PRIOR MAY 2010,373 Pine Tree Road,Ithica,NY,14850,United States
4605,"Schneiderman, Robert R",,Berkeley,CA,94703,
6916,Thompson Michael S,,Blacksburg,VA,24061,United States
6412,Anita Borg Institute for Women and Technology,1501 Page Mill Road,Palo Alto,CA,94304,United States
5296,Wepan Inc,"1901 East Asbury Ave., Suite 220",Denver,CO,80210,United States
12178,NanoSynth Materials and Sensors Inc.,615 Arapeen Drive,Salt Lake City,UT,84108,United States
2094,Association of Science-Technology Centers,1025 Vermont Ave Nw Suite 500,Washington,DC,20005,United States
4521,University of Nebraska,3835 Holdrege Street,Lincoln,NE,68503,United States
101,Montana State University,309 Montana Hall,Bozeman,MT,59717,United States
10783,Xunergy,131 Fox Hill Drive,Newtown,PA,18940,United States
12305,Angion Biomedica Corp,51 Charles Lindbergh Blvd,Uniondale,NY,11553,United States
432,General Atomics,General Atomics,San Diego,CA,92121,United States
572,Harvey Mudd College,301 Platt Boulevard,Claremont,CA,91711,United States
5765,Babson College,231 Forest Street,Babson Park,MA,02457,United States
310,Williams College,880 Main St.,Williamstown,MA,01267,United States
3843,Rehabilitation Institute of Chicago,345 East Superior Street,Chicago,IL,60611,United States
1302,Mercer University,1400 Coleman Avenue,Macon,GA,31207,United States
675,Spring Arbor College,106 Main Street,Spring Arbor,MI,49283,United States
3824,Mills College,5000 Macarthur Blvd,Oakland,CA,94613,United States
1315,Southwestern Oklahoma State University,100 Campus Drive,Weatherford,OK,73096,United States
11545,"US Ignite, Inc.",1776 Massachusetts Ave Suite 601,Washington,DC,20036,United States
9283,"Resensys, LLC",6327 Tone Ct,Bethesda,MD,20817,United States
541,University of Texas at San Antonio,One Utsa Circle,San Antonio,TX,78249,United States
1202,Austin Peay State University,601 College Street,Clarksville,TN,37044,United States
283,Georgetown University,37th & O St N W,Washington,DC,20057,United States
1927,Brookings Institution,1775 Mass Ave Nw,Washington,DC,20036,United States
687,Old Dominion University,5115 Hampton Blvd/200 Koch Hall,Norfolk,VA,23529,United States
4992,Graham David E,,Blacksburg,VA,24061,United States
1176,Winston-Salem/Forsyth County Schools,Post Office Box 2513,Winston-salem,NC,27102,United States
371,Bates College,2 Andrews Road,Lewiston,ME,04240,United States
4039,Coker College,East College Avenue,Hartsville,SC,29550,United States
4749,SimBiotic Software,148 Grandview Ct,Ithaca,NY,14850,United States
831,University of Arkansas Little Rock,2801 South University,Little Rock,AR,72204,United States
649,Skidaway Institute of Oceanography,10 Ocean Science Circle,Savannah,GA,31411,United States
3943,Detroit City School District,3011 W. Grand Blvd.,Detroit,MI,48202,United States
7734,"Ocean NanoTech, LLC",2143 Worth Lane,Springdale,AR,72764,United States
251,Virginia Commonwealth University,P.o. Box 980568,Richmond,VA,23298,United States
8908,"TechoShark, Inc.",3216 47th Street,Boulder,CO,80301,United States
617,Connecticut College,270 Mohegan Avenue,New London,CT,06320,United States
449,"National Biosystems, Inc.",1120 Rockville Pike Suite 300,Rockville,MD,20852,United States
9210,Vanderbilt University Medical Center,1400 18th Avenue South,Nashville,TN,37212,United States
374,American Chemical Society (ACS),1155 16th St Nw,Washington,DC,20036,United States
563,Salem International University,223 West Main Street,Salem,WV,26426,United States
4750,"Maxion Technologies, Inc.",5000 College Avenue,College Park,MD,20740,United States
4178,Thales Research Incorporated,315 Dunham Court,Severna Park,MD,21146,United States
83,University of North Carolina at Charlotte,9201 University City Boulevard,Charlotte,NC,28223,United States
3954,Prairie View A & M University,P O Box 667,Prairie View,TX,77446,United States
467,University of Arkansas,210 Administration Building,Fayetteville,AR,72701,United States
4708,"Hutchinson, John R",,Arlington,VA,22230,United States
6397,Adams William A,,Tuscaloosa,AL,35401,United States
4285,McMaster University,1280 Main Street West,"Hamilton, Ontario",,L8S4L,Canada
5462,Norwich University,158 Harmon Drive,Northfield,VT,05663,United States
141,New York University,70 Washington Square S,New York,NY,10012,United States
10271,Trellis Engineering LLC,Po Box 1009,Key West,FL,33041,United States
9242,ECOSIL Technologies LLC,160a Donald Drive,Fairfield,OH,45014,United States
409,Oklahoma Medical Research Foundation,825 N.e. 13th Street,Oklahoma City,OK,73104,United States
2092,Southwest Research Institute,6220 Culebra Road,San Antonio,TX,78238,United States
4508,Baker University,8th And Grove,Baldwin City,KS,66006,United States
2932,Metropolitan State College Denver,P.o. Box 173362,Denver,CO,80217,United States
2069,Defense Advanced Research Projects Agency,3701 North Fairfax Drive,Arlington,VA,22209,United States
8818,"Society for Mathematical Psychology, Inc","Bbs, Gr4.1, 800 W. Campbell Rd.",Richardson,TX,75080,United States
5029,Eastern Iowa Community College,306 West River Drive,Davenport,IA,52801,United States
1210,California Polytechnic State University Foundation,One Grand Ave,San Luis Obispo,CA,93407,United States
3681,Columbia College,1301 Columbia College Drive,Columbia,SC,29203,United States
1977,University of Guam,Uog Station,Mangilao,GU,96923,United States
2252,Botanical Research Institute of Texas,1700 University Dr.,Fort Worth,TX,76107,United States
6586,"GOKNOW, INC",2084 South State Street,Ann Arbor,MI,48104,United States
178,Davidson College,Box 7149,Davidson,NC,28035,United States
676,Bryan College,P.o. Box 7000,Dayton,TN,37321,United States
3639,Society For Neuroscience,"1121 14th Street, Nw",Washington,DC,20005,United States
1168,University of Illinois at Springfield,One University Plaza,Springfield,IL,62703,United States
330,Clark University,950 Main St,Worcester,MA,01610,United States
400,University of Kansas Center for Research Inc,2385 Irving Hill Rd,Lawrence,KS,66045,United States
2137,Presentation College,1500 North Main,Aberdeen,SD,57401,United States
1681,Monterey Peninsula Unified School District,Po Box 1031,Monterey,CA,93942,United States
893,Mathematical Sciences Research Institute,17 Gauss Way,Berkeley,CA,94720,United States
481,SUNY Health Science Center at Brooklyn,Office Of Scentific Affairs,Brooklyn,NY,11203,United States
85,University of Illinois at Chicago,809 S Marshfield Rm 608,Chicago,IL,60612,United States
181,Dickinson College,P.o. Box 1773,Carlisle,PA,17013,United States
637,Wake Forest University School of Medicine,Medical Center Blvd,Winston-salem,NC,27157,United States
448,Marquette University,P.o. Box 1881,Milwaukee,WI,53201,United States
2125,Forest Hills School District,P.o. Box 158,Sidman,PA,15955,United States
1284,Alfred University,1 Saxon Drive,Alfred,NY,14802,United States
8213,Fraunhofer Center for Experimental Software Engineering,5825 University Research Court,College Park,MD,20740,United States
5100,Western New England University,1215 Wilbraham Road,Springfield,MA,01119,United States
7902,Rutgers University Camden,311 N. 5th Street,Camden,NJ,08102,United States
84,University of Florida,1 University Of Florida,Gainesville,FL,32611,United States
2007,Muhlenberg College,24th And Chew Streets,Allentown,PA,18104,United States
44,Trustees of Boston University,881 Commonwealth Ave,Boston,MA,02215,United States
11680,"eLutions Integrated Systems, Inc.",33 Vandewater Street,San Francisco,CA,94133,United States
4952,Massachusetts Eye and Ear Infirmary,243 Charles Street,Boston,MA,02114,United States
2324,Earmark Inc,925 Tyson Drive,West Chester,PA,19382,United States
605,Bigelow Laboratory for Ocean Sciences,60 Bigelow Drive,East Boothbay,ME,04544,United States
111,Brown University,Box 1929,Providence,RI,02912,United States
7374,Digital Assembly LLC,Best,Brooklyn,NY,11201,United States
2135,Frederick Community College,7932 Opossumtown Pike,Frederick,MD,21702,United States
7592,Tallahassee Community College,444 Appleyard Drive,Tallahassee,FL,32304,United States
1215,Western Michigan University,1903 West Michigan Avenue,Kalamazoo,MI,49008,United States
2021,Drake University,2507 University Avenue,Des Moines,IA,50311,United States
4306,Association Research Libraries,1527 Nh Ave Nw,Washington,DC,20036,United States
428,Reed College,3203 S E Woodstock Blvd,Portland,OR,97202,United States
7841,Quinsigamond Community College,670 West Boylston Street,Worcester,MA,01606,United States
271,Rocky Mountain Biological Laboratory,Po Box 519,Crested Butte,CO,81224,United States
4968,University of Wisconsin-Extension,104 Extension Building,Madison,WI,53706,United States
2651,University of Puerto Rico Medical Sciences Campus,Office Of Sponsored Programs,San Juan,PR,00936,United States
626,Calvin College,3201 Burton St Se,Grand Rapids,MI,49546,United States
2335,Pacific University,2043 College Way,Forest Grove,OR,97116,United States
338,Bentley College,C/o Sponsored Programs,Waltham,MA,02452,United States
5297,Chicago Botanic Garden,1000 Lake Cook Road,Glencoe,IL,60022,United States
806,Joint Interoperability Test Center (JITC),2001 Brainard Rd,Fort Huachuca,AZ,85613,United States
8198,Center For Research Libraries,6050 South Kenwood Avenue,Chicago,IL,60637,United States
1259,San Diego City College,1313 Park Ave,San Diego,CA,92101,United States
72,Northern Arizona University,"Ard Building #56, Suite 240",Flagstaff,AZ,86011,United States
6261,"Desert Archaeology, Inc.",3975 N. Tucson Blvd.,Tucson,AZ,85716,United States
1424,Chabot Space and Science Center,10000 Skyline Blvd,Oakland,CA,94619,United States
5334,"GC Image, LLC","201 N 8 St, Suite 420",Lincoln,NE,68508,United States
435,University of Medicine and Dentistry of New Jersey/Newark,"New Jersey Medical School, Msb C",Newark,NJ,07101,United States
58,Purdue Research Foundation,,West Lafayette,IN,47907,United States
9683,"HARRISBURG UNIVERSITY OF SCIENCE AND TECHNOLOGY, THE",326 Market Street 14th Fl,Harrisburg,PA,17101,United States
12369,"Near Earth Autonomy, Inc.",5001 Baum Blvd. Suite 750,Pittsburgh,PA,15213,United States
2205,Kellogg Community College,450 North Avenue,Battle Creek,MI,49017,United States
9129,Southern Illinois University at Carbondale,Ofc. Of Sponsored Projects Admin,Carbondale,IL,62901,United States
559,Florida Institute of Technology,150 W University Blvd,Melbourne,FL,32901,United States
4694,"Smith, Gregory D",,Arlington,VA,22230,United States
3289,Whitaker Center for Science and Arts,225 Market Street,Harrisburg,PA,17101,United States
2995,International Community Auditory Display,423 Flood Avenue,San Francisco,CA,94105,United States
169,University of Pennsylvania,Research Services,Philadelphia,PA,19104,United States
114,Emory University,"1599 Clifton Rd Ne, 4th Floor",Atlanta,GA,30322,United States
161,Worcester Polytechnic Institute,100 Institute Rd,Worcester,MA,01609,United States
9207,"Rutgers, The State University of New Jersey-RBHS-Robert Wood",675 Hoes Lane,Piscataway,NJ,08854,United States
8576,"Zienon, LLC",2148 N Lincoln Ave. A2,Chicago,IL,60614,United States
199,Oregon State University,Oregon State University,Corvallis,OR,97331,United States
765,American Society For Engineering Education,1818 N St Nw Ste 600,Washington,DC,20036,United States
2605,NorthWestNET,"15400 Se 30th Place, Suite 202",Bellevue,WA,98007,United States
9962,"Tatemai, LLC",Po Box 529,Millville,UT,84326,United States
746,Society of Automotive Engineers Inc,400 Commonwealth Drive,Warrendale,PA,15096,United States
496,Travel Award,,Arlington,VA,22230,United States
4382,Montgomery County Community College,340 Dekalb Pike,Blue Bell,PA,19422,United States
119,University of Houston,4800 Calhoun Boulevard,Houston,TX,77204,United States
3195,Optoelectronic Solutions,"Rd 1, Box 460",Marion Center,PA,15759,United States
555,University of Dayton,300 College Park Ave,Dayton,OH,45469,United States
3841,"Goresky, R. Mark",,Princeton,NJ,08540,United States
6090,OPAL Laboratories Inc.,"1155 Jones St., #304",San Francisco,CA,94112,United States
678,Kentucky Wesleyan College,3000 Frederica Street,Owensboro,KY,42301,United States
485,University of Texas Health Science Center Houston,7000 Fannin St,Houston,TX,77030,United States
11335,Campbell Andrew A,,Knoxville,TN,37931,United States
8104,Harrison William S,,Ann Arbor,MI,48109,United States
6676,Stone Matthew T,,Champaign,IL,61821,United States
368,NASA/GODDARD SPACE FLIGHT CENTER,8800 Greenbelt Rd,Greenbelt,MD,20771,United States
5587,Kempe David M,,Ithaca,NY,14853,United States
551,Hampshire College,893 West Street,Amherst,MA,01002,United States
8855,International Union of Pure and Applied Chemistry,P.o. Box 13757,Durham,NC,27709,United States
5627,"Durbin, Blythe P",,Berkeley,CA,94710,United States
4084,AT Sciences,801 East Nasa Road One,Webster,TX,77598,United States
809,Notre Dame College,4545 College Road,Cleveland,OH,44121,United States
3725,Berea College,Berea College,Berea,KY,40404,United States
78,University of California-San Diego,Office Of Contract & Grant Admin,La Jolla,CA,92093,United States
2006,Sweet Briar College,134 Chapel Road,Sweet Briar,VA,24595,United States
4048,University of Texas at Tyler,3900 University Boulevard,Tyler,TX,75799,United States
7292,Turnbull Douglas R,,La Jolla,CA,92093,United States
241,Fisk University,1000 Seventeenth Avenue North,Nashville,TN,37208,United States
2378,Texas Southern University,3100 Cleburne Street,Houston,TX,77004,United States
7092,Pixelligent Technologies LLC,"387 Technology Drive, Suite 3122",College Park,MD,20742,United States
5,Massachusetts Institute of Technology,77 Massachusetts Ave,Cambridge,MA,02139,United States
355,University of Puerto Rico-Rio Piedras,Po Box 21790,San Juan,PR,00931,United States
198,University of Southern Maine,96 Falmouth St,Portland,ME,04104,United States
431,Pepperdine University,24255 Pacific Coast Hwy,Malibu,CA,90263,United States
33,Wayne State University,5057 Woodward,Detroit,MI,48202,United States
8186,Argon ST Network Systems,6696 Mesa Ridge Road,San Diego,CA,92121,United States
313,College of the Holy Cross,1 College Street,Worcester,MA,01610,United States
5750,Kim Karen M,,Newport Beach,CA,92660,United States
651,Semiconductor Research Corporation,P.o. Box 12053,Research Triangle Park,NC,27709,United States
6596,NEXIDIA INC.,Piedmont Rd Ne Building 2 Ste 40,Atlanta,GA,30305,United States
9396,Dept of Energy/National Nuclear Security Administration,"1000 Independence Av, Sw",Washington,DC,20585,United States
4106,"XSB, INC.",25 East Loop Road,Stony Brook,NY,11790,United States
5365,Aerial Vision Inc.,108 Wildflower Drive,Amherst,MA,01002,United States
681,Materials Research Society,506 Keystone Dr,Warrendale,PA,15086,United States
3054,CUNY John Jay College of Criminal Justice,899 Tenth Avenue,New York,NY,10019,United States
543,Smith-Kettlewell Eye Research Foundation,2318 Fillmore Street,San Francisco,CA,94115,United States
10764,"4D Teleport Technologies, Inc.",202 Arbours Dr,Savoy,IL,61874,United States
590,Bryn Mawr College,101 N. Merion Avenue,Bryn Mawr,PA,19010,United States
8079,Myers Andrew T,,Stanford,CA,94305,United States
7639,Knowles Science Teaching Foundation,1000 N. Church Street,Moorestown,NJ,08057,United States
2340,Birmingham Southern College,900 Arkadelphia Road,Birmingham,AL,35254,United States
4192,"Viterbo University, Inc.",900 Viterbo Drive,La Crosse,WI,54601,United States
150,University of Miami,1551 Brescia Avenue,Coral Gables,FL,33146,United States
772,Plymouth State University,17 High Street,Plymouth,NH,03264,United States
7223,"Agueros, Marcel A",,New York,NY,10017,United States
414,CUNY City University of New York,535 E 80th Street,New York,NY,10021,United States
664,"Front Range Scientific Computations, Inc.",P.o. Box 503,Lake City,CO,81235,United States
4594,"Zhang, Wendy W",,Honolulu,HI,96860,United States
2631,Midwestern State University,3400 Taft Boulevard,Wichita Falls,TX,76308,United States
10523,Heninger Nadia,,Cambridge,MA,02138,United States
367,University of Baltimore,1420 N Charles St,Baltimore,MD,21201,United States
9035,Virginia Polytechnic Institute and State University,Sponsored Programs 0170,Blacksburg,VA,24061,United States
1299,El Camino College,16007 Crenshaw Blvd,Torrance,CA,90506,United States
272,Southern Illinois University at Carbondale,Research Development And Admin.,Carbondale,IL,62901,United States
11522,Las Cumbres Observatory Global Telescope Network,6740 Cortona Dr Suite 102,Goleta,CA,93117,United States
12068,"Bionic Sciences, Inc.","75 Fifth St Nw, Suite 245",Atlanta,GA,30308,United States
8936,JES & Co.,7090 N. Oracle Rd.,Tucson,AZ,85704,United States
2929,Institution for International Manufacturing Research,205 Suburban,San Luis Obispo,CA,93401,United States
5172,Silver Buffalo Consulting,130 East Scenic Avenue,Pt. Richmond,CA,94801,United States
691,Olivet College,320 S. Main St.,Olivet,MI,49076,United States
3604,Louisiana State University Agricultural Center,Corner Of Highland And Parker,Baton Rouge,LA,70803,United States
3670,Astrophysical Research Consortium,3910 15th Avenue Ne Pab Rm B330e,Seattle,WA,98195,United States
76,University of New Mexico,"1700 Lomas Blvd. Ne, Suite 2200",Albuquerque,NM,87131,United States
5511,Wild Ellen L,,New Haven,CT,06520,United States
5470,The College Board,45 Columbus Avenue,New York,NY,10023,United States
37,Individual Award,,Baltimore,MD,21201,United States
2321,Gogebic Community College,E 4946 Jackson Road,Ironwood,MI,49938,United States
187,Drexel University,3201 Arch Street,Philadelphia,PA,19104,United States
3638,Antioch University New England,40 Avon Street,Keene,NH,03431,United States
618,Children's Hospital Corporation,300 Longwood Avenue,Boston,MA,02115,United States
4560,Danville Community College,1008 South Main Street,Danville,VA,24541,United States
5558,Brookdale Community College,765 Newman Springs Road,Lincroft,NJ,07738,United States
9789,Davenport Mark A,,Houston,TX,77005,United States
2083,South Carolina State University,300 College Street Ne,Orangeburg,SC,29117,United States
5615,"Hahn, Matthew W",,Davis,CA,95617,United States
8207,Boulder Language Technologies,2690 Center Green Ct S Ste 200,Boulder,CO,80301,United States
5946,Raritan Valley Community College,P O Box 3300,Somerville,NJ,08876,United States
9121,University Corporation at Monterey Bay,100 Campus Center,Seaside,CA,93955,United States
8929,"Chang-Wai-Ling, Nolanne",,Albuquerque,NM,87131,United States
6731,Solana Scientific Inc.,777 S. Pacific Coast Hwy,Solana Beach,CA,92075,United States
7355,"ADA Technologies, Inc.",8100 Shaffer Parkway,Littleton,CO,80127,United States
102,North Dakota State University Fargo,Dept 4000 - Po Box 6050,Fargo,ND,58108,United States
2076,Union College,807 Union Street,Schenectady,NY,12308,United States
7169,National Institutes of Health (NIH/OD/OER),"Rkl2/6215, Msc 7910",Bethesda,MD,20892,United States
1420,Morehouse College,830 Westview Drive S W,Atlanta,GA,30314,United States
337,University of North Florida,1 Unf Drive,Jacksonville,FL,32224,United States
3069,Susquehanna University,514 University Ave,Selinsgrove,PA,17870,United States
226,University of Massachusetts Lowell,600 Suffolk Street,Lowell,MA,01854,United States
180,Wichita State University,1845 Fairmount,Wichita,KS,67260,United States
11653,"Polymer Exploration Group, LLC",5609 Promontory Pointe Rd,Midlothian,VA,23112,United States
408,Ithaca College,Danby Road,Ithaca,NY,14850,United States
8358,"Blendics, Inc.",10176 Corporate Square Drive,St. Louis,MO,63132,United States
11537,RTSync Corp,530 Bartow Drive,Sierra Vista,AZ,85635,United States
120,University of Rochester,"518 Hylan, River Campusbox 27014",Rochester,NY,14627,United States
5108,Hampton Stephanie E,,Reno,NV,89509,United States
